{"type":"FeatureCollection","features":[{"type":"Feature","properties":{"nazwa":"Żagań"},"geometry":{"type":"Polygon","coordinates":[[[15.19733,51.654156],[15.207081,51.612739],[15.196335,51.561225],[15.166166,51.524398],[15.066129,51.464915],[14.969835,51.406824],[14.972896,51.384612],[14.980297,51.367586],[14.996309,51.362661],[15.01232,51.368485],[15.01757,51.390423],[15.066014,51.400658],[15.132758,51.43994],[15.194179,51.46674],[15.220049,51.450096],[15.26283,51.448013],[15.310959,51.431346],[15.335024,51.473002],[15.372961,51.509644],[15.379441,51.516342],[15.380548,51.528399],[15.398832,51.531083],[15.405257,51.537116],[15.412845,51.559881],[15.438687,51.577955],[15.463403,51.616754],[15.494536,51.645486],[15.515977,51.72423],[15.481746,51.75225],[15.464149,51.766321],[15.442026,51.781317],[15.397088,51.769396],[15.381303,51.744856],[15.362195,51.740522],[15.344446,51.736079],[15.310685,51.745433],[15.29913,51.751792],[15.289689,51.75773],[15.287046,51.759179],[15.282438,51.757543],[15.256684,51.748566],[15.232969,51.740055],[15.19733,51.654156]]]}},{"type":"Feature","properties":{"nazwa":"Zielona Góra"},"geometry":{"coordinates":[[[15.63652,52.006032],[15.610653,52.006263],[15.580429,52.03375],[15.534702,52.03478],[15.492906,52.042748],[15.467004,52.040932],[15.412184,52.053976],[15.382575,52.015989],[15.366437,51.97501],[15.405948,51.94956],[15.392989,51.922243],[15.35316,51.894565],[15.369642,51.863195],[15.380171,51.853016],[15.390909,51.848719],[15.429356,51.848628],[15.442611,51.830377],[15.465943,51.827415],[15.50838,51.820143],[15.51832,51.843529],[15.568605,51.83845],[15.599257,51.851883],[15.629451,51.850405],[15.633452,51.862736],[15.64215,51.876305],[15.644897,51.886478],[15.681979,51.876022],[15.722866,51.86547],[15.7774,51.85118],[15.788864,51.886574],[15.761589,51.894358],[15.77378,51.913009],[15.791881,51.938311],[15.768953,51.953189],[15.768289,51.976082],[15.691246,51.977001],[15.63652,52.006032]]],"type":"Polygon"}},{"type":"Feature","properties":{"nazwa":"Sulechów"},"geometry":{"coordinates":[[[15.411863,52.096287],[15.380777,52.061185],[15.429798,52.050654],[15.465468,52.04165],[15.492349,52.044217],[15.534702,52.03478],[15.580429,52.03375],[15.610653,52.006263],[15.63652,52.006032],[15.643145,52.00693],[15.642427,52.011156],[15.713429,52.007327],[15.753549,52.017494],[15.771249,52.019673],[15.784922,52.026413],[15.767401,52.038373],[15.754926,52.048236],[15.738854,52.061539],[15.742091,52.09851],[15.747607,52.11964],[15.722453,52.145111],[15.72555,52.168829],[15.671277,52.161022],[15.663092,52.176873],[15.606912,52.164109],[15.584564,52.136224],[15.573309,52.129955],[15.55747,52.12535],[15.542465,52.135328],[15.525793,52.134817],[15.493191,52.144068],[15.447477,52.122422],[15.437803,52.11054],[15.411863,52.096287]]],"type":"Polygon"}},{"type":"Feature","properties":{"nazwa":"Torzym"},"geometry":{"coordinates":[[[15.048265,52.378805],[15.028365,52.377359],[15.022774,52.385493],[14.983454,52.38574],[14.980124,52.397999],[14.946362,52.403789],[14.926518,52.391243],[14.919737,52.366166],[14.895684,52.336871],[14.831941,52.282646],[14.754463,52.259847],[14.725922,52.2658],[14.700286,52.250014],[14.714715,52.234476],[14.712834,52.214883],[14.695992,52.196033],[14.706879,52.171975],[14.698501,52.152095],[14.685622,52.139356],[14.690916,52.12801],[14.696234,52.106177],[14.75786,52.082301],[14.785774,52.080275],[14.81127,52.075007],[14.852937,52.075361],[14.904141,52.041119],[15.048546,52.141726],[15.15119,52.198723],[15.250995,52.211801],[15.332519,52.301444],[15.288093,52.370816],[15.256052,52.36552],[15.241508,52.336169],[15.223534,52.336181],[15.20949,52.352517],[15.09112,52.359034],[15.113216,52.390077],[15.048265,52.378805]]],"type":"Polygon"}},{"type":"Feature","properties":{"nazwa":"Gmina Krosno Odrzańskie"},"geometry":{"coordinates":[[[14.906382,52.029361],[14.906313,52.010381],[14.906457,51.991757],[14.918994,51.983933],[14.920706,51.962844],[14.948949,51.944699],[14.992142,51.952461],[15.055972,51.957649],[15.098044,51.97142],[15.105932,51.97709],[15.126968,51.984378],[15.137486,51.985997],[15.14669,51.990855],[15.182188,51.99895],[15.229519,52.0119],[15.248496,52.063831],[15.27081,52.056844],[15.256627,52.084781],[15.288987,52.089],[15.291959,52.115199],[15.267169,52.093651],[15.224821,52.098679],[15.192615,52.112269],[15.181903,52.12104],[15.157259,52.120738],[15.120293,52.124067],[15.089734,52.145547],[15.068026,52.151627],[15.048145,52.139273],[15.024369,52.124187],[15.015797,52.117709],[15.007005,52.111365],[14.995576,52.10394],[14.942825,52.067204],[14.904901,52.039862],[14.88765,52.035617],[14.906382,52.029361]]],"type":"Polygon"}},{"type":"Feature","properties":{"nazwa":"Kożuchów, Bytom Odrzański, Nowe Miasteczko"},"geometry":{"coordinates":[[[15.442233,51.781668],[15.460826,51.769312],[15.516653,51.724609],[15.514154,51.714661],[15.511405,51.704904],[15.507468,51.692004],[15.505007,51.680866],[15.5042,51.680687],[15.504703,51.680502],[15.504122,51.680093],[15.504015,51.6796],[15.504318,51.679036],[15.504318,51.677217],[15.50098,51.664796],[15.49572,51.646033],[15.519997,51.646536],[15.532643,51.632173],[15.601286,51.637791],[15.656757,51.621024],[15.681966,51.629906],[15.81299,51.623385],[15.812215,51.656006],[15.851446,51.694491],[15.862285,51.734185],[15.850076,51.751506],[15.789171,51.755091],[15.767984,51.733309],[15.743836,51.733162],[15.719688,51.733015],[15.719698,51.742693],[15.663161,51.759275],[15.606557,51.79136],[15.606655,51.80949],[15.57881,51.823266],[15.568605,51.83845],[15.51832,51.843529],[15.50838,51.820143],[15.465943,51.827415],[15.468632,51.818161],[15.442233,51.781668]]],"type":"Polygon"}},{"type":"Feature","properties":{"nazwa":"Gmina Kargowa"},"geometry":{"coordinates":[[[15.848631,52.098209],[15.848179,52.098873],[15.844819,52.098204],[15.843669,52.099896],[15.840702,52.102927],[15.837433,52.105493],[15.836201,52.108219],[15.83399,52.108312],[15.833566,52.109335],[15.833233,52.111287],[15.831478,52.11291],[15.825741,52.117833],[15.814191,52.127491],[15.773121,52.122526],[15.748656,52.119918],[15.742465,52.098598],[15.739708,52.061832],[15.769146,52.038492],[15.799071,52.019033],[15.870841,51.998666],[15.939693,52.00316],[15.967428,52.004058],[15.964995,52.018284],[15.964265,52.031009],[15.958151,52.034444],[15.965095,52.033952],[15.97388,52.034381],[15.981918,52.034753],[15.989516,52.035163],[15.994268,52.035237],[15.993845,52.03695],[15.991272,52.03923],[15.988814,52.04325],[15.990405,52.045063],[15.989043,52.045882],[15.991056,52.048029],[15.991511,52.050393],[15.993478,52.050337],[15.993236,52.051193],[15.999623,52.053874],[16.005465,52.054246],[16.003165,52.057634],[16.002741,52.057876],[16.001409,52.057522],[15.999805,52.059942],[15.994876,52.058586],[15.992757,52.059647],[15.990638,52.060614],[15.988822,52.06108],[15.989589,52.061453],[15.987531,52.062179],[15.989165,52.063835],[15.986713,52.064598],[15.987985,52.066452],[15.988227,52.06716],[15.985926,52.068202],[15.985775,52.069858],[15.982445,52.069858],[15.980667,52.070891],[15.978443,52.072075],[15.977111,52.072205],[15.975476,52.073842],[15.969513,52.075331],[15.970663,52.076336],[15.971965,52.077377],[15.969815,52.078996],[15.967485,52.081805],[15.962096,52.083256],[15.957283,52.084447],[15.951683,52.085953],[15.946158,52.087098],[15.941025,52.088197],[15.932549,52.087471],[15.932943,52.084254],[15.931641,52.080998],[15.9267,52.076358],[15.924739,52.067234],[15.921484,52.068884],[15.916368,52.070652],[15.906363,52.074023],[15.90237,52.075675],[15.899131,52.076754],[15.89787,52.07669],[15.897307,52.078742],[15.892148,52.082273],[15.890846,52.083556],[15.884429,52.084747],[15.877252,52.087839],[15.87037,52.086036],[15.865103,52.085404],[15.8625,52.08665],[15.859896,52.086353],[15.858232,52.088361],[15.855326,52.091858],[15.848631,52.098209]]],"type":"Polygon"}},{"type":"Feature","properties":{"nazwa":"Gmina Gubin"},"geometry":{"type":"Polygon","coordinates":[[[14.712553,51.936797],[14.69129,51.908136],[14.65263,51.87436],[14.611584,51.857421],[14.59055,51.838652],[14.607766,51.803576],[14.633957,51.801078],[14.649871,51.78655],[14.673922,51.785886],[14.692957,51.810485],[14.730906,51.815531],[14.77911,51.820435],[14.773805,51.812235],[14.810945,51.815515],[14.853391,51.817975],[14.862871,51.835735],[14.858413,51.849653],[14.848848,51.875552],[14.889663,51.870887],[14.927196,51.878883],[14.938947,51.893732],[14.950734,51.94262],[14.919065,51.962625],[14.917668,51.983336],[14.905958,51.991708],[14.905926,52.029298],[14.891702,52.032911],[14.885987,52.035616],[14.902692,52.040889],[14.851091,52.074448],[14.806656,52.074039],[14.772408,52.081081],[14.755227,52.070025],[14.748435,52.032252],[14.714836,52.004925],[14.721327,51.996127],[14.721739,51.993304],[14.72075,51.990481],[14.717862,51.986301],[14.717775,51.982121],[14.709958,51.978878],[14.709916,51.964061],[14.721957,51.953329],[14.720361,51.948278],[14.721966,51.94372],[14.712553,51.936797]]]}},{"type":"Feature","properties":{"nazwa":"Gmina Lubsko"},"geometry":{"coordinates":[[[14.830973,51.774385],[14.911415,51.730669],[14.977889,51.754619],[14.992145,51.769704],[15.014696,51.775624],[15.069706,51.798451],[15.054493,51.824892],[15.050808,51.841588],[15.054493,51.861312],[14.974664,51.866621],[14.932631,51.884326],[14.926678,51.877806],[14.920149,51.876858],[14.912544,51.87444],[14.888157,51.869934],[14.871067,51.872306],[14.85052,51.874558],[14.86475,51.836199],[14.830973,51.774385]]],"type":"Polygon"}},{"type":"Feature","properties":{"nazwa":"Gorzów Wielkopolski"},"geometry":{"coordinates":[[[14.905503,52.837555],[14.895386,52.833402],[14.890952,52.845846],[14.876869,52.846679],[14.867959,52.84434],[14.874681,52.834739],[14.85903,52.819657],[14.869851,52.808844],[14.866224,52.791483],[14.850549,52.790044],[14.851739,52.778425],[14.818593,52.772264],[14.791448,52.752996],[14.799617,52.734116],[14.791923,52.694864],[14.766153,52.672395],[14.752238,52.663871],[14.751547,52.648776],[14.72234,52.625577],[14.752881,52.620942],[14.786816,52.617337],[14.817781,52.612701],[14.846509,52.610209],[14.798208,52.517237],[14.788183,52.493651],[14.814948,52.509273],[14.834484,52.512448],[14.879128,52.51496],[14.898541,52.525544],[14.921608,52.529556],[14.962625,52.524396],[14.989786,52.518858],[15.009724,52.52576],[15.035081,52.527907],[15.096922,52.527081],[15.134709,52.536492],[15.178523,52.5554],[15.199496,52.584542],[15.253424,52.640029],[15.278599,52.66233],[15.357267,52.673323],[15.337815,52.690009],[15.323974,52.705074],[15.313127,52.720475],[15.303732,52.731326],[15.283806,52.774357],[15.245468,52.787135],[15.225692,52.794342],[15.144749,52.798759],[15.126113,52.799197],[15.110832,52.806894],[15.074246,52.831589],[15.047133,52.844591],[15.034452,52.859044],[15.019375,52.854617],[14.989871,52.842201],[14.971509,52.868492],[14.957954,52.869356],[14.917615,52.888519],[14.894716,52.871027],[14.895765,52.865116],[14.896813,52.859205],[14.92296,52.847394],[14.905503,52.837555]]],"type":"Polygon"}},{"type":"Feature","properties":{"nazwa":"Łęknica"},"geometry":{"coordinates":[[[14.72897,51.537485],[14.729912,51.53218],[14.735107,51.526279],[14.744577,51.525687],[14.750734,51.522148],[14.759746,51.523923],[14.764959,51.520387],[14.774919,51.51863],[14.785347,51.518345],[14.842575,51.50373],[14.86976,51.489722],[14.961787,51.475939],[15.012902,51.54094],[14.99215,51.582791],[14.967619,51.595896],[14.964663,51.604066],[14.946788,51.665349],[14.81696,51.684229],[14.759928,51.65932],[14.755392,51.65275],[14.753016,51.640831],[14.754944,51.627907],[14.763326,51.622346],[14.767577,51.616521],[14.76718,51.608151],[14.759742,51.601966],[14.752197,51.598422],[14.75265,51.595193],[14.743141,51.593143],[14.737005,51.587839],[14.73136,51.584301],[14.72846,51.577243],[14.720891,51.571059],[14.71146,51.562815],[14.718051,51.554566],[14.723742,51.554861],[14.731338,51.548679],[14.731317,51.544255],[14.727539,51.540428],[14.72897,51.537485]]],"type":"Polygon"}},{"type":"Feature","properties":{"nazwa":"Gmina Nowogród Bobrzański"},"geometry":{"coordinates":[[[15.106396,51.862848],[15.077358,51.839023],[15.153229,51.846499],[15.170312,51.807094],[15.143235,51.804412],[15.152063,51.784083],[15.123515,51.778842],[15.135907,51.758102],[15.176558,51.753883],[15.193299,51.752087],[15.210487,51.750429],[15.222987,51.749323],[15.225344,51.747286],[15.227848,51.743539],[15.230699,51.737208],[15.232969,51.740552],[15.28714,51.759606],[15.310457,51.745758],[15.345666,51.736514],[15.381104,51.745639],[15.396572,51.769445],[15.442233,51.781668],[15.468632,51.818161],[15.465943,51.827415],[15.442611,51.830377],[15.429356,51.848628],[15.390909,51.848719],[15.334472,51.844188],[15.314501,51.836573],[15.292593,51.859531],[15.256223,51.874627],[15.232354,51.899121],[15.179211,51.892204],[15.164708,51.881973],[15.106396,51.862848]]],"type":"Polygon"}},{"type":"Feature","properties":{"nazwa":"Świebodzin"},"geometry":{"coordinates":[[[15.501787,52.359113],[15.45697,52.358884],[15.42936,52.342822],[15.430675,52.309878],[15.42936,52.289777],[15.451663,52.278538],[15.429298,52.250009],[15.398791,52.237934],[15.401007,52.199139],[15.394761,52.151139],[15.429099,52.134017],[15.444122,52.123807],[15.470949,52.135664],[15.492947,52.145543],[15.529281,52.135911],[15.545005,52.137889],[15.558444,52.126935],[15.584564,52.136224],[15.606912,52.164109],[15.663104,52.177219],[15.629586,52.201759],[15.630699,52.229499],[15.605051,52.23868],[15.623413,52.275691],[15.610609,52.303337],[15.626214,52.320834],[15.621678,52.34258],[15.501787,52.359113]]],"type":"Polygon"}},{"type":"Feature","properties":{"nazwa":"Międzyrzecz"},"geometry":{"coordinates":[[[15.554448,52.527893],[15.54888,52.508188],[15.526404,52.498172],[15.474312,52.501756],[15.443712,52.487305],[15.447825,52.478913],[15.452823,52.470806],[15.394768,52.455208],[15.419569,52.43409],[15.412898,52.420934],[15.449861,52.386304],[15.435789,52.375648],[15.454966,52.360458],[15.501787,52.359113],[15.621678,52.34258],[15.640876,52.359901],[15.688178,52.358097],[15.740119,52.365527],[15.75923,52.385439],[15.793536,52.389303],[15.773815,52.411764],[15.752779,52.43742],[15.731743,52.456652],[15.700753,52.486753],[15.645527,52.506381],[15.690718,52.526787],[15.65522,52.538783],[15.613505,52.537895],[15.554448,52.527893]]],"type":"Polygon"}},{"type":"Feature","properties":{"nazwa":"Zbąszynek"},"geometry":{"coordinates":[[[15.862886,52.27024],[15.878962,52.286433],[15.821789,52.292975],[15.746065,52.366028],[15.720153,52.362096],[15.688157,52.357512],[15.641164,52.359674],[15.622334,52.342471],[15.627161,52.320538],[15.61155,52.303024],[15.623943,52.275668],[15.606061,52.238889],[15.623765,52.232581],[15.631856,52.23026],[15.63073,52.20196],[15.663748,52.177022],[15.672117,52.161623],[15.694488,52.164782],[15.712031,52.167546],[15.726677,52.169323],[15.724745,52.159944],[15.723498,52.144677],[15.747769,52.120261],[15.814484,52.127776],[15.833687,52.111224],[15.872462,52.130497],[15.882448,52.156422],[15.88006,52.164396],[15.8676,52.166206],[15.857911,52.180504],[15.85702,52.202906],[15.850093,52.212748],[15.860473,52.228004],[15.857027,52.248836],[15.851038,52.256359],[15.853253,52.261955],[15.854513,52.26697],[15.862886,52.27024]]],"type":"Polygon"}},{"type":"Feature","properties":{"nazwa":"Gmina Ośno Lubuskie"},"geometry":{"coordinates":[[[14.722495,52.450556],[14.773426,52.430505],[14.815337,52.411092],[14.832844,52.394261],[14.863084,52.371594],[14.89916,52.345674],[14.919549,52.371069],[14.926093,52.396939],[14.938949,52.40203],[14.947438,52.407209],[14.963353,52.402354],[14.981666,52.403165],[14.986166,52.388434],[15.012692,52.387786],[15.026777,52.391431],[15.035388,52.412993],[15.024691,52.429265],[15.033524,52.45441],[14.987838,52.465623],[14.987755,52.513083],[14.987534,52.518003],[14.97025,52.521307],[14.956625,52.524559],[14.938316,52.526237],[14.922596,52.528527],[14.899627,52.524732],[14.879494,52.514034],[14.863047,52.513344],[14.848301,52.512308],[14.832705,52.5111],[14.816257,52.508339],[14.784036,52.489015],[14.76812,52.480292],[14.749552,52.469305],[14.722495,52.450556]]],"type":"Polygon"}},{"type":"Feature","properties":{"nazwa":"Gmina Szprotawa"},"geometry":{"type":"Polygon","coordinates":[[[15.483949,51.633745],[15.461365,51.616155],[15.438777,51.577623],[15.412431,51.56097],[15.40536,51.535334],[15.495987,51.52973],[15.532569,51.511741],[15.560718,51.495998],[15.60979,51.470507],[15.642901,51.490011],[15.697987,51.526887],[15.697689,51.560014],[15.815406,51.581914],[15.811704,51.623104],[15.743203,51.626344],[15.714498,51.627424],[15.682531,51.629044],[15.656532,51.619415],[15.600219,51.63638],[15.531069,51.630726],[15.519475,51.645117],[15.497045,51.645514],[15.483949,51.633745]]]}},{"type":"Feature","properties":{"nazwa":"Nowa Sól"},"geometry":{"coordinates":[[[15.646835,51.885199],[15.629246,51.849499],[15.60046,51.851066],[15.569908,51.83823],[15.575152,51.829767],[15.581821,51.823339],[15.607227,51.809205],[15.607229,51.791401],[15.663599,51.759497],[15.718625,51.742728],[15.721163,51.733294],[15.767707,51.733832],[15.789753,51.75582],[15.85155,51.752155],[15.882859,51.799826],[15.889009,51.811244],[15.889651,51.824954],[15.875763,51.828599],[15.861359,51.832171],[15.857687,51.832878],[15.85654,51.834862],[15.853605,51.83849],[15.847137,51.845745],[15.812706,51.848007],[15.777432,51.850529],[15.646835,51.885199]]],"type":"Polygon"}},{"type":"Feature","properties":{"nazwa":"Gmina Sława"},"geometry":{"coordinates":[[[15.790092,51.886897],[15.780184,51.857329],[15.778074,51.850643],[15.801193,51.848942],[15.847259,51.845908],[15.858836,51.833082],[15.890141,51.825079],[15.889489,51.811168],[15.883138,51.799587],[15.87559,51.788172],[15.917685,51.791025],[15.959801,51.782174],[15.96385,51.790525],[15.971139,51.800376],[15.978699,51.804215],[15.993159,51.806276],[16.026152,51.805113],[16.047107,51.78831],[16.145982,51.770801],[16.164013,51.798973],[16.162424,51.826063],[16.19664,51.854808],[16.200137,51.871933],[16.14615,51.891736],[16.084566,51.891344],[16.121294,51.923985],[16.115314,51.953947],[16.137325,51.954369],[16.121213,51.991883],[16.107633,51.995767],[16.060645,51.977158],[16.010617,51.981422],[15.961715,51.976012],[15.858038,51.97683],[15.770524,51.953033],[15.793228,51.938312],[15.773578,51.911966],[15.762753,51.894815],[15.790092,51.886897]]],"type":"Polygon"}},{"type":"Feature","properties":{"nazwa":"Gmina Wschowa"},"geometry":{"coordinates":[[[16.201044,51.871337],[16.197423,51.854192],[16.187845,51.846435],[16.179167,51.839286],[16.168861,51.831019],[16.163437,51.82599],[16.164521,51.810567],[16.164702,51.80084],[16.165064,51.797486],[16.168543,51.795964],[16.180205,51.791252],[16.226755,51.788252],[16.234983,51.755646],[16.266072,51.739864],[16.287824,51.764216],[16.322627,51.744368],[16.355865,51.732819],[16.364457,51.748183],[16.371477,51.765564],[16.403474,51.779327],[16.381267,51.785606],[16.397003,51.807803],[16.387943,51.819087],[16.37163,51.833365],[16.364214,51.848673],[16.32872,51.87483],[16.31396,51.885002],[16.284315,51.893697],[16.250854,51.89732],[16.244397,51.886451],[16.231188,51.87558],[16.212979,51.868694],[16.201044,51.871337]]],"type":"Polygon"}},{"type":"Feature","properties":{"nazwa":"Gmina Sulęcin"},"geometry":{"type":"Polygon","coordinates":[[[14.987755,52.513083],[14.987838,52.465623],[15.033524,52.45441],[15.024691,52.429265],[15.035388,52.412993],[15.026777,52.391431],[15.029434,52.378979],[15.055671,52.380704],[15.07787,52.386617],[15.1033,52.389573],[15.117024,52.391543],[15.09574,52.361954],[15.154966,52.357291],[15.186046,52.355812],[15.210668,52.354333],[15.225199,52.338058],[15.238519,52.336332],[15.242481,52.342767],[15.253858,52.365918],[15.272829,52.369862],[15.2918,52.372819],[15.344878,52.36592],[15.357596,52.379436],[15.404936,52.370483],[15.435789,52.375648],[15.449861,52.386304],[15.412898,52.420934],[15.418139,52.434876],[15.393102,52.455991],[15.298668,52.46183],[15.278738,52.493396],[15.266395,52.524894],[15.181361,52.554925],[15.144561,52.538532],[15.10177,52.525256],[15.054893,52.525939],[15.029453,52.526818],[15.009346,52.523321],[14.993508,52.517966],[14.987755,52.513083]]]}},{"type":"Feature","properties":{"nazwa":"Żary"},"geometry":{"coordinates":[[[15.098518,51.761534],[14.986119,51.762838],[14.949268,51.666498],[14.968626,51.596084],[14.994445,51.583164],[15.015217,51.539768],[15.00586,51.527825],[14.964643,51.476731],[14.956728,51.462371],[14.969272,51.447338],[14.986119,51.418211],[15.028793,51.44278],[15.093505,51.483271],[15.141202,51.5099],[15.167839,51.526998],[15.19286,51.552818],[15.205437,51.61136],[15.195518,51.65502],[15.211588,51.692658],[15.230499,51.736999],[15.224435,51.747817],[15.098518,51.761534]]],"type":"Polygon"}},{"type":"Feature","properties":{"nazwa":"Skwierzyna, Lubniewice"},"geometry":{"coordinates":[[[15.461494,52.651324],[15.363864,52.671698],[15.281331,52.661211],[15.200467,52.583074],[15.179838,52.556568],[15.266803,52.525585],[15.291328,52.475504],[15.300392,52.462836],[15.396946,52.456043],[15.451329,52.470885],[15.443197,52.487415],[15.473999,52.502],[15.52579,52.49837],[15.54862,52.508347],[15.554063,52.528121],[15.619081,52.538873],[15.63601,52.559374],[15.674441,52.588612],[15.668148,52.620956],[15.600334,52.622453],[15.461494,52.651324]]],"type":"Polygon"}},{"type":"Feature","properties":{"nazwa":"Słubice, Kostrzyn nad Odrą"},"geometry":{"coordinates":[[[14.60949,52.46459],[14.577805,52.440971],[14.545499,52.428754],[14.53458,52.398429],[14.550945,52.376458],[14.560984,52.331039],[14.584923,52.306457],[14.575786,52.288576],[14.592643,52.274734],[14.701841,52.254135],[14.723776,52.267452],[14.729202,52.267727],[14.73515,52.265785],[14.756166,52.261902],[14.798596,52.274521],[14.828732,52.28374],[14.855079,52.305686],[14.883063,52.32738],[14.899321,52.343614],[14.838176,52.385577],[14.799431,52.417226],[14.717367,52.450338],[14.785065,52.491766],[14.842726,52.607964],[14.628154,52.636584],[14.61789,52.611525],[14.665471,52.5689],[14.640721,52.530686],[14.630784,52.488113],[14.620848,52.445541],[14.60949,52.46459]]],"type":"Polygon"}},{"type":"Feature","properties":{"nazwa":"Powiat strzelecko-drezdenecki"},"geometry":{"coordinates":[[[15.607116,52.971772],[15.580972,52.97501],[15.546551,53.00107],[15.438194,52.980943],[15.375623,52.936145],[15.292978,52.945524],[15.345224,52.898251],[15.25337,52.869058],[15.078299,52.827465],[15.125082,52.80181],[15.225124,52.79526],[15.28776,52.775395],[15.304702,52.732135],[15.352933,52.675713],[15.601995,52.62311],[15.772609,52.626213],[15.77391,52.672522],[15.80255,52.673707],[15.78177,52.712154],[15.848669,52.718914],[15.930672,52.736804],[15.916864,52.774004],[15.877791,52.824322],[15.927564,52.854787],[15.968458,52.904804],[15.948884,52.951999],[15.938667,52.995131],[15.944422,53.043555],[15.975005,53.067359],[15.968765,53.102503],[15.875327,53.121146],[15.84818,53.115237],[15.859988,53.093717],[15.811453,53.084406],[15.821611,53.065212],[15.791508,53.059165],[15.818036,53.051348],[15.786703,53.017453],[15.776368,52.995906],[15.728741,52.979186],[15.686508,52.991468],[15.641792,52.968419],[15.607116,52.971772]]],"type":"Polygon"}}]}