{"type":"FeatureCollection","features":[{"type":"Feature","properties":{"nazwa":"Rzeszów, Głogów Małopolski"},"geometry":{"type":"Polygon","coordinates":[[[22.049471,50.231417],[22.000223,50.232476],[21.976219,50.249019],[21.95056,50.249151],[21.918693,50.23605],[21.934627,50.200373],[21.916417,50.182308],[21.864065,50.177405],[21.859924,50.150966],[21.931033,50.114536],[21.962672,50.076205],[21.935231,50.072689],[21.928759,50.064849],[21.947274,50.060821],[21.960076,50.057462],[21.969179,50.054067],[21.975352,50.048536],[21.98757,50.043542],[21.993388,50.042987],[21.994956,50.04308],[21.996636,50.042431],[21.999,50.041474],[22.000989,50.040806],[22.002882,50.040958],[22.004753,50.040851],[22.010482,50.039589],[22.014885,50.038981],[22.015666,50.040258],[22.016883,50.041501],[22.018405,50.042521],[22.019881,50.043237],[22.020426,50.043922],[22.020717,50.044844],[22.018905,50.046012],[22.013459,50.047635],[22.012496,50.049007],[22.013038,50.05005],[22.016189,50.051549],[22.019387,50.052669],[22.015066,50.056229],[22.01458,50.060432],[22.02465,50.071753],[21.990602,50.074685],[21.977981,50.096172],[22.023799,50.124884],[22.055252,50.137618],[22.061046,50.159567],[22.034145,50.181965],[22.049471,50.231417]]]}},{"type":"Feature","properties":{"nazwa":"Nisko"},"geometry":{"type":"Polygon","coordinates":[[[22.087142,50.455608],[22.08717,50.452515],[22.058955,50.453328],[22.062479,50.416364],[22.039242,50.409127],[22.019367,50.38009],[22.018589,50.36155],[21.985522,50.367692],[21.997098,50.332048],[21.968201,50.326924],[21.97461,50.314009],[22.002219,50.310114],[21.998244,50.325761],[22.06899,50.331278],[22.09999,50.356416],[22.199671,50.352941],[22.194876,50.340483],[22.23686,50.359274],[22.269215,50.36543],[22.25641,50.391789],[22.277244,50.386067],[22.310036,50.393738],[22.310062,50.417463],[22.286617,50.429117],[22.281543,50.446678],[22.252677,50.454851],[22.269026,50.480268],[22.251042,50.501604],[22.26375,50.517794],[22.22599,50.54003],[22.227872,50.549916],[22.179224,50.539174],[22.14897,50.550601],[22.094613,50.547897],[22.06727,50.510913],[22.087142,50.455608]]]}},{"type":"Feature","properties":{"nazwa":"Stalowa Wola"},"geometry":{"type":"Polygon","coordinates":[[[21.841973,50.739071],[21.880954,50.703723],[21.858196,50.647155],[21.881327,50.625858],[21.97945,50.559223],[21.978331,50.52747],[21.966392,50.502797],[21.883939,50.488557],[21.88282,50.472888],[21.852226,50.461964],[21.880343,50.392501],[21.893401,50.399398],[21.918025,50.416994],[21.953468,50.384413],[21.983525,50.368472],[22.017103,50.362522],[22.017849,50.380131],[22.03725,50.409861],[22.060754,50.416756],[22.057397,50.454323],[22.085005,50.453848],[22.064485,50.509164],[22.090975,50.548739],[22.149923,50.550873],[22.180516,50.539967],[22.226406,50.549687],[22.205513,50.568886],[22.248418,50.57481],[22.263342,50.603944],[22.245807,50.62383],[22.246926,50.63377],[22.233433,50.646099],[22.233433,50.653432],[22.205712,50.665999],[22.191535,50.664344],[22.144152,50.670019],[22.177357,50.700333],[22.169149,50.705059],[22.206458,50.753472],[22.181834,50.76834],[22.178477,50.765272],[22.15236,50.772587],[22.163926,50.797118],[22.131467,50.801363],[22.096793,50.814094],[22.052395,50.82093],[22.039337,50.808672],[21.993447,50.783203],[21.984493,50.788864],[21.981881,50.783439],[21.971435,50.787213],[21.949423,50.770935],[21.901294,50.780136],[21.884878,50.777541],[21.874059,50.779901],[21.878536,50.788392],[21.874432,50.798062],[21.864731,50.802542],[21.858762,50.780136],[21.838988,50.75772],[21.841973,50.739071]]]}},{"type":"Feature","properties":{"nazwa":"Tarnobrzeg"},"geometry":{"type":"Polygon","coordinates":[[[21.603457,50.519378],[21.606377,50.51514],[21.616957,50.519012],[21.623239,50.520407],[21.632608,50.52199],[21.649191,50.523782],[21.65696,50.531779],[21.665802,50.536324],[21.680873,50.536027],[21.686188,50.534584],[21.710216,50.534477],[21.767173,50.498026],[21.816397,50.518864],[21.866173,50.480951],[21.881892,50.47432],[21.883024,50.48906],[21.964803,50.503615],[21.977262,50.527094],[21.978395,50.558549],[21.880986,50.625565],[21.85717,50.646969],[21.879596,50.702753],[21.842898,50.737112],[21.841766,50.73445],[21.8284,50.718533],[21.826814,50.706627],[21.821139,50.690628],[21.785347,50.680437],[21.793955,50.675844],[21.778324,50.65854],[21.781496,50.645614],[21.762693,50.64705],[21.759069,50.654806],[21.748438,50.654663],[21.738924,50.647625],[21.73915,50.643315],[21.734166,50.641591],[21.72216,50.645757],[21.714911,50.63254],[21.670284,50.606369],[21.658051,50.572353],[21.629282,50.550767],[21.603457,50.519378]]]}},{"type":"Feature","properties":{"nazwa":"Przeworsk"},"geometry":{"type":"Polygon","coordinates":[[[22.553331,50.199651],[22.525111,50.162123],[22.527309,50.14034],[22.50033,50.130007],[22.450563,50.123122],[22.456367,50.116889],[22.420139,50.108139],[22.419342,50.087923],[22.381161,50.090367],[22.386316,50.068229],[22.374806,50.052401],[22.342743,50.052257],[22.351088,50.009494],[22.389285,49.99936],[22.448292,50.004685],[22.474479,50.001142],[22.491557,49.988749],[22.468131,49.964913],[22.470328,49.944409],[22.513398,49.952527],[22.565359,49.96609],[22.579803,49.980911],[22.549921,50.010537],[22.554179,50.019131],[22.599107,50.043521],[22.600852,50.094578],[22.580673,50.126749],[22.601166,50.142799],[22.553331,50.199651]]]}},{"type":"Feature","properties":{"nazwa":"Przemyśl"},"geometry":{"type":"Polygon","coordinates":[[[22.685682,49.572658],[22.705636,49.592706],[22.716486,49.600821],[22.748364,49.630788],[22.756209,49.634896],[22.783084,49.656945],[22.784252,49.665217],[22.786923,49.676344],[22.805618,49.693408],[22.821976,49.694379],[22.847419,49.710022],[22.851759,49.720491],[22.872624,49.740343],[22.884809,49.744227],[22.896905,49.751453],[22.897573,49.763962],[22.900912,49.767843],[22.910593,49.774203],[22.932435,49.792957],[22.941449,49.796512],[22.953801,49.802977],[22.96198,49.804701],[22.956806,49.810949],[22.970298,49.838888],[22.995837,49.842333],[23.018705,49.866681],[23.032059,49.880129],[23.063106,49.906833],[23.092651,49.928436],[23.056644,49.927147],[23.033943,49.94004],[22.959996,49.948097],[22.956197,49.923387],[22.914634,49.932091],[22.916136,49.905975],[22.857218,49.886826],[22.836019,49.906073],[22.796459,49.901235],[22.769418,49.90962],[22.756398,49.919401],[22.692542,49.9036],[22.662162,49.864772],[22.595808,49.838753],[22.594807,49.837784],[22.607326,49.784895],[22.595475,49.766884],[22.552242,49.751033],[22.534882,49.721698],[22.543562,49.698491],[22.580995,49.683742],[22.584,49.669808],[22.584,49.650817],[22.603362,49.616654],[22.631265,49.589542],[22.663815,49.593221],[22.685682,49.572658]]]}},{"type":"Feature","properties":{"nazwa":"Leżajsk"},"geometry":{"type":"Polygon","coordinates":[[[22.404874,50.394617],[22.441009,50.379473],[22.456487,50.350207],[22.434376,50.329745],[22.397894,50.343328],[22.374954,50.347032],[22.354226,50.374009],[22.314499,50.372951],[22.310077,50.393219],[22.278017,50.384232],[22.257565,50.390223],[22.272489,50.364842],[22.238771,50.358848],[22.193997,50.337647],[22.189298,50.318768],[22.213067,50.300588],[22.199524,50.28452],[22.252748,50.264724],[22.233954,50.2467],[22.268778,50.228315],[22.284809,50.204793],[22.35492,50.177949],[22.378965,50.152632],[22.409643,50.126061],[22.447784,50.123581],[22.500297,50.131377],[22.52561,50.140789],[22.524228,50.163457],[22.552143,50.200435],[22.551867,50.217416],[22.584758,50.239456],[22.575914,50.256953],[22.591115,50.276563],[22.619859,50.2672],[22.636718,50.303282],[22.605763,50.311401],[22.610185,50.329578],[22.641693,50.337164],[22.652195,50.335576],[22.669884,50.33928],[22.6732,50.344219],[22.687572,50.344552],[22.688401,50.356368],[22.668226,50.354252],[22.637271,50.359013],[22.595537,50.348961],[22.565728,50.359542],[22.533391,50.354781],[22.503266,50.346139],[22.503266,50.352665],[22.482537,50.354957],[22.457939,50.367652],[22.455452,50.36677],[22.452411,50.38845],[22.434723,50.392503],[22.437487,50.399726],[22.420351,50.400431],[22.419522,50.396555],[22.407361,50.397788],[22.404874,50.394617]]]}},{"type":"Feature","properties":{"nazwa":"Lubaczów"},"geometry":{"type":"Polygon","coordinates":[[[22.841719,50.298435],[22.837282,50.269693],[22.799526,50.209601],[22.869032,50.190651],[22.893487,50.167022],[22.936392,50.170594],[22.912794,50.124404],[22.916656,50.099091],[22.947773,50.094247],[22.954209,50.073599],[23.00784,50.06699],[23.04817,50.042749],[23.038731,50.0207],[23.009127,49.997539],[23.070052,49.987885],[23.155269,49.981264],[23.212333,50.02897],[23.21362,50.047157],[23.239363,50.052943],[23.263389,50.07828],[23.280853,50.085145],[23.278707,50.098632],[23.283856,50.098632],[23.316034,50.112942],[23.429303,50.1836],[23.468775,50.217688],[23.504815,50.229492],[23.548149,50.251993],[23.533132,50.261594],[23.510822,50.260771],[23.514683,50.278972],[23.503957,50.278424],[23.503528,50.285552],[23.518974,50.289664],[23.52069,50.294598],[23.50267,50.299258],[23.469477,50.295421],[23.461325,50.303094],[23.430004,50.301176],[23.413271,50.306931],[23.404691,50.303368],[23.436011,50.348016],[23.412413,50.351302],[23.405978,50.36444],[23.375944,50.371556],[23.372941,50.375934],[23.383238,50.382501],[23.367363,50.388246],[23.367363,50.39946],[23.386242,50.398913],[23.386242,50.404382],[23.359516,50.410398],[23.352223,50.401921],[23.319186,50.395357],[23.307173,50.380312],[23.278855,50.377576],[23.253971,50.361156],[23.219647,50.388246],[23.181891,50.396178],[23.090995,50.331312],[23.07083,50.325013],[23.029213,50.286649],[22.984592,50.295146],[22.942545,50.292405],[22.887627,50.301724],[22.85502,50.293776],[22.841719,50.298435]]]}},{"type":"Feature","properties":{"nazwa":"Gmina Bircza, Dubiecko"},"geometry":{"type":"Polygon","coordinates":[[[22.302724,49.873442],[22.307102,49.824612],[22.325574,49.815136],[22.298019,49.795833],[22.321087,49.786045],[22.336246,49.75732],[22.297462,49.743397],[22.261268,49.711081],[22.331903,49.701894],[22.32506,49.673727],[22.39491,49.633032],[22.392719,49.612546],[22.430271,49.593992],[22.462143,49.591208],[22.530701,49.635158],[22.525861,49.665361],[22.580252,49.670857],[22.579344,49.682652],[22.538741,49.698248],[22.53115,49.721494],[22.55024,49.752563],[22.593373,49.767071],[22.605001,49.785178],[22.591095,49.838484],[22.454521,49.846728],[22.454521,49.866741],[22.416579,49.888973],[22.344172,49.886273],[22.302724,49.873442]]]}},{"type":"Feature","properties":{"nazwa":"Rzeszów Boguchwała, Świlcza"},"geometry":{"type":"Polygon","coordinates":[[[21.804709,50.151079],[21.788588,50.096893],[21.821178,50.079982],[21.798056,50.072218],[21.797723,50.044191],[21.82241,50.030407],[21.807118,50.006926],[21.749253,49.969343],[21.793416,49.973117],[21.896608,49.957481],[21.914714,49.948734],[21.933884,49.952502],[21.958563,49.977541],[21.95301,49.983886],[21.963452,49.988022],[21.963678,49.991875],[21.978994,49.99437],[21.993264,50.010241],[21.993613,50.015262],[22.005136,50.031888],[22.012841,50.034184],[22.014781,50.038838],[22.010367,50.039528],[22.004616,50.040756],[22.002732,50.040892],[22.000972,50.040744],[21.999443,50.041201],[21.997932,50.041794],[21.994956,50.043042],[21.993195,50.042941],[21.987459,50.043433],[21.975139,50.048559],[21.968982,50.053895],[21.959894,50.057404],[21.947756,50.060545],[21.92826,50.064651],[21.93502,50.072747],[21.962144,50.076312],[21.930367,50.114436],[21.859723,50.150426],[21.804709,50.151079]]]}},{"type":"Feature","properties":{"nazwa":"Rzeszów Chmielnik, Tyczyn"},"geometry":{"type":"Polygon","coordinates":[[[21.955793,49.973337],[21.958209,49.957488],[21.99276,49.920594],[22.03821,49.917448],[22.085281,49.940353],[22.112524,49.935242],[22.132519,49.944534],[22.210339,49.938481],[22.229764,49.96725],[22.201708,49.978931],[22.188391,49.998459],[22.145337,50.005055],[22.144359,50.004741],[22.092534,50.010047],[22.074942,50.034379],[22.073232,50.039951],[22.032306,50.037361],[22.015166,50.03893],[22.013212,50.033909],[22.006004,50.031554],[21.99452,50.01515],[21.994398,50.010534],[21.97986,49.99384],[21.9641,49.991091],[21.964589,49.988263],[21.954327,49.983786],[21.959214,49.977658],[21.955793,49.973337]]]}},{"type":"Feature","properties":{"nazwa":"Rzeszów, Krasne, Trzebownisko"},"geometry":{"type":"Polygon","coordinates":[[[21.990963,50.075133],[22.025049,50.072007],[22.014736,50.060363],[22.015346,50.056315],[22.019618,50.052658],[22.015859,50.051335],[22.01322,50.049988],[22.012738,50.049004],[22.013586,50.04774],[22.01881,50.046118],[22.020882,50.044912],[22.020575,50.043908],[22.020024,50.043273],[22.018294,50.04238],[22.016937,50.041464],[22.015851,50.040266],[22.015098,50.039057],[22.032554,50.037555],[22.073399,50.040082],[22.075226,50.034412],[22.092684,50.010162],[22.144488,50.004929],[22.12244,50.043567],[22.138605,50.053141],[22.167344,50.09439],[22.148988,50.114399],[22.105033,50.138432],[22.08577,50.171037],[22.034723,50.181667],[22.061372,50.15975],[22.055667,50.137517],[22.024062,50.124863],[21.978259,50.096138],[21.990963,50.075133]]]}},{"type":"Feature","properties":{"nazwa":"Jarosław"},"geometry":{"type":"Polygon","coordinates":[[[22.595728,49.83894],[22.661831,49.864746],[22.692105,49.903802],[22.756433,49.919838],[22.769469,49.90984],[22.797007,49.901538],[22.835988,49.906633],[22.856934,49.887196],[22.915749,49.905972],[22.914284,49.932392],[22.955822,49.923718],[22.959484,49.948513],[23.033895,49.940406],[23.056745,49.927395],[23.092631,49.928527],[23.107132,49.94182],[23.114895,49.956618],[23.142872,49.971075],[23.154297,49.981154],[23.069927,49.987653],[23.008709,49.997348],[23.038444,50.020693],[23.047672,50.042656],[23.007785,50.066731],[22.953589,50.0735],[22.932485,50.07773],[22.90114,50.057798],[22.847335,50.05018],[22.793589,50.070492],[22.765173,50.063628],[22.722825,50.023273],[22.68855,50.041244],[22.694995,50.06232],[22.665114,50.086385],[22.66594,50.112181],[22.640454,50.114717],[22.642358,50.133029],[22.601491,50.14054],[22.582889,50.126151],[22.602809,50.095504],[22.600173,50.077365],[22.601198,50.041733],[22.55623,50.018519],[22.551397,50.01158],[22.58157,49.981826],[22.566044,49.965434],[22.515313,49.951961],[22.519267,49.938764],[22.565407,49.941027],[22.540799,49.903287],[22.543729,49.882905],[22.517217,49.844702],[22.595728,49.83894]]]}},{"type":"Feature","properties":{"nazwa":"Łańcut"},"geometry":{"type":"Polygon","coordinates":[[[22.44734,50.12346],[22.407589,50.12523],[22.352751,50.177311],[22.283936,50.203076],[22.266993,50.227764],[22.233609,50.244966],[22.194881,50.225085],[22.171171,50.17432],[22.129383,50.183444],[22.088048,50.171194],[22.106046,50.139074],[22.149222,50.116254],[22.16926,50.094539],[22.139871,50.052186],[22.124194,50.04284],[22.145857,50.006509],[22.189222,49.999691],[22.202202,49.979744],[22.232219,49.969352],[22.211524,49.938835],[22.23592,49.931656],[22.295377,49.933919],[22.319834,49.946441],[22.317933,49.999034],[22.349191,50.009524],[22.339608,50.053313],[22.372935,50.053313],[22.384424,50.068804],[22.379057,50.091476],[22.4178,50.089013],[22.418188,50.108704],[22.454641,50.117075],[22.44734,50.12346]]]}},{"type":"Feature","properties":{"nazwa":"Kańczuga, Pruchnik"},"geometry":{"type":"Polygon","coordinates":[[[22.236346,49.930841],[22.267207,49.873626],[22.300307,49.874056],[22.342288,49.887046],[22.377427,49.889009],[22.419052,49.88922],[22.459088,49.866615],[22.459077,49.847225],[22.515516,49.844763],[22.541852,49.883171],[22.539171,49.902818],[22.562761,49.939683],[22.519116,49.936891],[22.513369,49.951187],[22.469037,49.943488],[22.467185,49.964887],[22.489648,49.989116],[22.473334,50.000472],[22.448335,50.003893],[22.388651,49.998255],[22.34973,50.008727],[22.319148,49.998197],[22.320828,49.944953],[22.296699,49.933184],[22.236346,49.930841]]]}},{"type":"Feature","properties":{"nazwa":"Krosno"},"geometry":{"type":"Polygon","coordinates":[[[21.618506,49.798028],[21.645386,49.772059],[21.60266,49.745631],[21.61844,49.735456],[21.620513,49.70844],[21.577447,49.689969],[21.582974,49.672236],[21.577907,49.647638],[21.571699,49.631965],[21.621214,49.633024],[21.612232,49.591987],[21.59565,49.578699],[21.647845,49.586641],[21.672802,49.630638],[21.692752,49.613032],[21.718546,49.618852],[21.750328,49.592883],[21.747564,49.563477],[21.733286,49.528959],[21.773128,49.507429],[21.795467,49.524923],[21.783261,49.54985],[21.802837,49.563595],[21.809746,49.589442],[21.832546,49.603773],[21.851201,49.643171],[21.851431,49.658082],[21.903249,49.719937],[21.905782,49.739929],[21.877685,49.750198],[21.894498,49.780842],[21.840607,49.790507],[21.811589,49.780544],[21.771905,49.80049],[21.743347,49.791273],[21.661112,49.842997],[21.635318,49.825022],[21.638422,49.804909],[21.618506,49.798028]]]}},{"type":"Feature","properties":{"nazwa":"Sokołów Małopolski"},"geometry":{"type":"Polygon","coordinates":[[[21.999564,50.325294],[22.003874,50.309644],[22.008183,50.302551],[22.08609,50.308287],[22.084114,50.290876],[22.094505,50.267808],[22.046368,50.245631],[22.051175,50.23206],[22.035391,50.182174],[22.087364,50.171678],[22.129363,50.184323],[22.17097,50.175301],[22.194242,50.225759],[22.231436,50.245547],[22.25136,50.264288],[22.198133,50.284412],[22.211699,50.300643],[22.187791,50.318742],[22.193592,50.339799],[22.198697,50.352636],[22.100671,50.355934],[22.070206,50.330779],[21.999564,50.325294]]]}},{"type":"Feature","properties":{"nazwa":"Powiat kolbuszowski"},"geometry":{"type":"Polygon","coordinates":[[[21.637356,50.181634],[21.69436,50.178187],[21.707829,50.175631],[21.746109,50.156729],[21.772364,50.17263],[21.795841,50.169293],[21.803306,50.15164],[21.859506,50.151064],[21.863752,50.177619],[21.915499,50.18257],[21.934207,50.200456],[21.918505,50.236125],[21.950462,50.249299],[21.976357,50.249121],[22.000309,50.232871],[22.049199,50.231754],[22.044958,50.245975],[22.092601,50.267982],[22.082873,50.290458],[22.084991,50.307505],[22.007479,50.301999],[22.00415,50.308279],[21.973306,50.313469],[21.966072,50.326848],[21.995007,50.332421],[21.983283,50.368183],[21.953101,50.383932],[21.917849,50.416368],[21.894901,50.399676],[21.879685,50.359591],[21.825515,50.33476],[21.798825,50.352907],[21.72147,50.333008],[21.680812,50.351634],[21.637659,50.390453],[21.597998,50.386954],[21.622693,50.361617],[21.601241,50.3422],[21.566569,50.332647],[21.575661,50.301472],[21.530512,50.29478],[21.555955,50.276451],[21.610167,50.250428],[21.601187,50.233358],[21.574747,50.230327],[21.602435,50.2091],[21.641098,50.193772],[21.637356,50.181634]]]}},{"type":"Feature","properties":{"nazwa":"Błażowa, Dynów"},"geometry":{"type":"Polygon","coordinates":[[[21.955196,49.973286],[21.934451,49.951742],[21.914595,49.948119],[21.906296,49.917776],[21.944824,49.874607],[22.020667,49.837509],[22.063343,49.826135],[22.096119,49.835693],[22.124487,49.80487],[22.155901,49.782126],[22.206049,49.795615],[22.233907,49.789971],[22.219534,49.77294],[22.261974,49.763261],[22.295019,49.744496],[22.333325,49.758762],[22.31747,49.785079],[22.294798,49.796081],[22.321471,49.815566],[22.303096,49.823406],[22.29954,49.872617],[22.266347,49.872617],[22.234228,49.931312],[22.209926,49.938274],[22.13266,49.944282],[22.112656,49.935127],[22.08584,49.939991],[22.038365,49.917288],[21.992725,49.920532],[21.958028,49.957509],[21.955196,49.973286]]]}},{"type":"Feature","properties":{"nazwa":"Ropczyce, Sędziszów Małopolski"},"geometry":{"type":"Polygon","coordinates":[[[21.511967,50.161419],[21.568671,50.129774],[21.566007,50.112006],[21.541167,50.097474],[21.542647,50.081867],[21.501864,50.077021],[21.501157,50.047408],[21.526897,50.038515],[21.51305,50.007338],[21.487532,50.011366],[21.464041,49.992218],[21.481342,49.952739],[21.50043,49.946598],[21.544945,49.955506],[21.540702,49.96925],[21.557891,49.995491],[21.617439,49.995332],[21.610158,49.979989],[21.642099,49.97221],[21.690272,49.972133],[21.694844,49.964633],[21.748573,49.969408],[21.80619,50.00668],[21.821389,50.029992],[21.796646,50.044069],[21.797484,50.072663],[21.819719,50.080157],[21.787842,50.09659],[21.803813,50.151185],[21.796292,50.168993],[21.773316,50.172389],[21.746869,50.156375],[21.707569,50.175558],[21.69449,50.177822],[21.63758,50.181218],[21.641468,50.193623],[21.6031,50.208702],[21.609947,50.177575],[21.511967,50.161419]]]}},{"type":"Feature","properties":{"nazwa":"Strzyżów"},"geometry":{"type":"Polygon","coordinates":[[[21.559989,49.78571],[21.617091,49.797649],[21.638131,49.805026],[21.634754,49.825138],[21.660729,49.8434],[21.743487,49.791556],[21.77184,49.800804],[21.811865,49.780776],[21.839875,49.790912],[21.893902,49.78152],[21.927669,49.786049],[21.944293,49.813443],[21.962734,49.822828],[22.011826,49.816627],[22.019879,49.83707],[21.944723,49.874226],[21.905761,49.917822],[21.914154,49.948178],[21.895923,49.957229],[21.793084,49.972433],[21.695419,49.963746],[21.697757,49.951714],[21.676977,49.932469],[21.673341,49.925112],[21.600249,49.921433],[21.557651,49.906213],[21.541806,49.886636],[21.523624,49.892493],[21.484212,49.872312],[21.477909,49.840351],[21.553235,49.827953],[21.559989,49.78571]]]}},{"type":"Feature","properties":{"nazwa":"Dukla, Rymanów-Zdrój"},"geometry":{"type":"Polygon","coordinates":[[[21.773279,49.507218],[21.73299,49.528781],[21.746853,49.562851],[21.749953,49.592734],[21.718766,49.61858],[21.692427,49.612742],[21.672946,49.630194],[21.648067,49.586297],[21.596082,49.578436],[21.5817,49.550001],[21.59331,49.545841],[21.613237,49.503226],[21.590018,49.484542],[21.569917,49.456425],[21.580834,49.434343],[21.601627,49.434906],[21.606479,49.439864],[21.618956,49.444822],[21.63063,49.447139],[21.656102,49.424376],[21.656449,49.417388],[21.682403,49.41036],[21.698345,49.418702],[21.710821,49.413517],[21.715499,49.413742],[21.721911,49.412389],[21.724407,49.403661],[21.728739,49.39791],[21.734111,49.399489],[21.739309,49.39261],[21.764088,49.384263],[21.765475,49.377945],[21.762009,49.376704],[21.776218,49.35628],[21.788175,49.354474],[21.79164,49.35944],[21.787655,49.366775],[21.803943,49.38212],[21.816505,49.383924],[21.822916,49.390241],[21.839032,49.391933],[21.849948,49.383924],[21.848216,49.378397],[21.859132,49.368017],[21.874381,49.373884],[21.890323,49.36576],[21.88963,49.361697],[21.904359,49.349394],[21.907651,49.353571],[21.918568,49.354022],[21.933297,49.345895],[21.945253,49.34883],[21.946986,49.346911],[21.952185,49.349846],[21.933817,49.382458],[21.936243,49.418924],[21.966394,49.463105],[21.948546,49.473352],[21.969166,49.488776],[21.941441,49.50442],[21.926366,49.524918],[21.931911,49.562809],[21.915276,49.594221],[21.932777,49.620385],[21.963448,49.617691],[21.921806,49.630936],[21.852147,49.643617],[21.833259,49.603542],[21.810906,49.588941],[21.803628,49.563097],[21.784195,49.549845],[21.796325,49.525106],[21.773279,49.507218]]]}},{"type":"Feature","properties":{"nazwa":"Brzozów"},"geometry":{"type":"Polygon","coordinates":[[[21.906022,49.740288],[21.903897,49.719828],[21.891668,49.705455],[21.877987,49.689241],[21.852216,49.65814],[21.852074,49.643945],[21.922184,49.631495],[21.963771,49.617767],[22.023144,49.634154],[22.057439,49.618507],[22.113445,49.655121],[22.151458,49.64258],[22.183014,49.653582],[22.21374,49.628512],[22.242157,49.630396],[22.252783,49.65087],[22.31282,49.668396],[22.326812,49.684886],[22.331262,49.701514],[22.260331,49.710861],[22.296567,49.743241],[22.261598,49.762963],[22.218579,49.772749],[22.232682,49.789768],[22.206501,49.795313],[22.155865,49.781547],[22.123985,49.804386],[22.095711,49.835194],[22.063305,49.825633],[22.020669,49.836952],[22.012269,49.816063],[21.962782,49.822627],[21.944782,49.81305],[21.928214,49.785882],[21.895306,49.781259],[21.878463,49.750257],[21.906022,49.740288]]]}},{"type":"Feature","properties":{"nazwa":"Lesko, Ustrzyki"},"geometry":{"type":"Polygon","coordinates":[[[22.685366,49.57267],[22.663697,49.592769],[22.631273,49.589283],[22.603024,49.616515],[22.58357,49.65083],[22.583412,49.669669],[22.527737,49.66322],[22.532956,49.635365],[22.46304,49.589515],[22.427769,49.592694],[22.399931,49.575765],[22.423656,49.553709],[22.396105,49.527108],[22.350078,49.549791],[22.300765,49.516944],[22.283525,49.484485],[22.292857,49.447974],[22.26154,49.410015],[22.214638,49.338089],[22.217169,49.321597],[22.187592,49.307429],[22.193286,49.270292],[22.226975,49.259764],[22.2507,49.238599],[22.238047,49.201633],[22.222388,49.183958],[22.231688,49.180105],[22.236117,49.168317],[22.225994,49.160871],[22.225361,49.152285],[22.236117,49.154251],[22.240071,49.151872],[22.249245,49.153009],[22.281973,49.142043],[22.303009,49.139766],[22.306805,49.136559],[22.321989,49.135834],[22.334484,49.146699],[22.369913,49.145664],[22.380296,49.130888],[22.390735,49.127059],[22.391051,49.118054],[22.397694,49.116811],[22.412404,49.102419],[22.429011,49.097966],[22.440874,49.103041],[22.456849,49.103662],[22.498111,49.085655],[22.540499,49.09477],[22.556474,49.087209],[22.569602,49.088452],[22.581939,49.097256],[22.601235,49.093113],[22.606297,49.083687],[22.613731,49.084101],[22.617368,49.081097],[22.627491,49.07975],[22.639644,49.059446],[22.646603,49.056959],[22.659573,49.0468],[22.670012,49.047111],[22.672068,49.042342],[22.684879,49.038402],[22.699431,49.049703],[22.718885,49.052294],[22.727584,49.047526],[22.735176,49.049288],[22.744508,49.045453],[22.75384,49.042446],[22.766335,49.053642],[22.808724,49.034224],[22.813152,49.024475],[22.826122,49.022193],[22.833714,49.025927],[22.844944,49.004454],[22.848898,49.002275],[22.853801,49.00352],[22.867245,49.002275],[22.885751,49.00684],[22.891761,49.007567],[22.889705,49.014621],[22.894766,49.017111],[22.879108,49.023853],[22.873888,49.033601],[22.881638,49.037956],[22.877052,49.04003],[22.873414,49.036712],[22.871832,49.038682],[22.865664,49.04003],[22.875786,49.051123],[22.867087,49.060555],[22.865189,49.066754],[22.87199,49.071728],[22.866296,49.074318],[22.884644,49.081777],[22.885909,49.085595],[22.893026,49.094399],[22.886542,49.098852],[22.875786,49.096677],[22.855541,49.104858],[22.860602,49.112002],[22.853643,49.110864],[22.85048,49.115419],[22.843995,49.110035],[22.829443,49.11252],[22.831183,49.117904],[22.816072,49.129776],[22.792347,49.139193],[22.793455,49.145401],[22.789026,49.149953],[22.793138,49.154815],[22.785388,49.157815],[22.775107,49.153678],[22.738729,49.158643],[22.742683,49.169022],[22.749959,49.173366],[22.74975,49.177676],[22.75671,49.180984],[22.754495,49.182543],[22.751174,49.182543],[22.746429,49.184611],[22.732194,49.181923],[22.728872,49.174892],[22.723337,49.175099],[22.724602,49.16786],[22.71701,49.164758],[22.714479,49.170859],[22.707678,49.173961],[22.708469,49.181406],[22.716377,49.18368],[22.730138,49.198152],[22.729443,49.204301],[22.735769,49.207194],[22.734504,49.211534],[22.741622,49.211431],[22.74779,49.21608],[22.742254,49.218457],[22.735769,49.218043],[22.727387,49.221246],[22.719795,49.221039],[22.714891,49.226514],[22.716948,49.235716],[22.721376,49.241912],[22.740673,49.247281],[22.744469,49.298901],[22.751586,49.316845],[22.743361,49.335803],[22.747157,49.36012],[22.732606,49.398871],[22.723274,49.414137],[22.715524,49.433068],[22.712519,49.437902],[22.701131,49.480974],[22.700498,49.488333],[22.696544,49.495422],[22.669972,49.497682],[22.651439,49.508254],[22.64527,49.524889],[22.641474,49.52992],[22.663301,49.538645],[22.676587,49.551501],[22.678485,49.561145],[22.685366,49.57267]]]}},{"type":"Feature","properties":{"nazwa":"Sanok"},"geometry":{"type":"Polygon","coordinates":[[[22.221845,49.184462],[22.237402,49.201805],[22.249985,49.238416],[22.226192,49.259474],[22.192331,49.269775],[22.186718,49.307961],[22.216689,49.32213],[22.213486,49.33853],[22.261759,49.411948],[22.291959,49.448246],[22.282579,49.484364],[22.300195,49.517498],[22.350491,49.550979],[22.395791,49.528116],[22.422902,49.55374],[22.398879,49.576045],[22.427363,49.593028],[22.389957,49.61245],[22.391787,49.631273],[22.323212,49.672098],[22.325193,49.682571],[22.313479,49.668065],[22.253153,49.650589],[22.242624,49.630041],[22.213568,49.628189],[22.183026,49.653079],[22.151031,49.642117],[22.113625,49.654634],[22.057644,49.618036],[22.023097,49.633746],[21.974207,49.61956],[21.963798,49.617485],[21.933369,49.620079],[21.915982,49.594505],[21.932683,49.562805],[21.926963,49.525324],[21.941834,49.504945],[21.969975,49.488674],[21.949613,49.473364],[21.96723,49.463263],[21.936801,49.41859],[21.934284,49.383073],[21.952816,49.349847],[21.960242,49.349552],[21.96722,49.344782],[21.965618,49.341726],[21.978774,49.325731],[21.978316,49.319692],[21.978545,49.317007],[21.982777,49.314099],[21.983349,49.31037],[21.988954,49.30858],[21.993187,49.303084],[22.001766,49.298907],[22.001652,49.297265],[22.012748,49.289059],[22.023615,49.286],[22.035782,49.277174],[22.03338,49.26441],[22.030749,49.262171],[22.042417,49.257169],[22.038184,49.25007],[22.037956,49.246785],[22.039443,49.244694],[22.036125,49.241706],[22.033837,49.241408],[22.035553,49.232818],[22.030634,49.225572],[22.051911,49.216382],[22.060491,49.214215],[22.061993,49.211787],[22.068056,49.212385],[22.083728,49.207602],[22.088646,49.207975],[22.09368,49.206032],[22.099056,49.206331],[22.108322,49.204089],[22.118274,49.200726],[22.125138,49.202445],[22.12754,49.2008],[22.144699,49.2008],[22.143044,49.1925],[22.155742,49.188389],[22.160775,49.188389],[22.163063,49.186071],[22.176332,49.183005],[22.186971,49.177696],[22.188115,49.17463],[22.192004,49.173433],[22.206875,49.181958],[22.21065,49.183454],[22.210765,49.185846],[22.217587,49.183753],[22.221845,49.184462]]]}},{"type":"Feature","properties":{"nazwa":"Jasło"},"geometry":{"type":"Polygon","coordinates":[[[21.580072,49.435697],[21.569085,49.456441],[21.588334,49.484121],[21.612293,49.503324],[21.593249,49.545329],[21.580757,49.549523],[21.595092,49.57861],[21.611679,49.592417],[21.620689,49.632749],[21.571132,49.631687],[21.576764,49.646496],[21.582395,49.672169],[21.577276,49.689924],[21.619665,49.708997],[21.617822,49.735078],[21.602464,49.745665],[21.645,49.772116],[21.618232,49.797641],[21.559194,49.785479],[21.552436,49.827241],[21.478095,49.840053],[21.442669,49.8386],[21.411952,49.828166],[21.379392,49.865905],[21.350313,49.871448],[21.351542,49.836593],[21.301377,49.842288],[21.300067,49.841756],[21.316512,49.83508],[21.321724,49.830469],[21.339222,49.825688],[21.347447,49.814399],[21.332406,49.810747],[21.336359,49.807687],[21.329986,49.80438],[21.310996,49.796582],[21.294135,49.799965],[21.281098,49.80557],[21.271131,49.801158],[21.268048,49.794032],[21.250791,49.792616],[21.240552,49.776485],[21.251953,49.765913],[21.255706,49.751883],[21.280279,49.755322],[21.288061,49.748442],[21.304443,49.750295],[21.320006,49.739179],[21.314272,49.730444],[21.332293,49.719324],[21.320344,49.697621],[21.347375,49.692852],[21.341641,49.659989],[21.365395,49.635062],[21.326078,49.591991],[21.37973,49.56942],[21.358023,49.54418],[21.378092,49.538599],[21.388331,49.527967],[21.380959,49.527435],[21.392836,49.511217],[21.407989,49.510153],[21.421256,49.492409],[21.401597,49.492409],[21.388491,49.486024],[21.409788,49.475114],[21.413064,49.467662],[21.391768,49.455417],[21.394634,49.434913],[21.431904,49.412535],[21.476955,49.413601],[21.485966,49.426389],[21.493338,49.428521],[21.521597,49.418131],[21.517911,49.424258],[21.52856,49.435712],[21.551495,49.433315],[21.562143,49.439973],[21.580072,49.435697]]]}},{"type":"Feature","properties":{"nazwa":"Dębica"},"geometry":{"type":"Polygon","coordinates":[[[21.279401,49.925118],[21.281644,49.926752],[21.321991,49.928475],[21.329066,49.919119],[21.359278,49.924044],[21.374002,49.941398],[21.423864,49.951896],[21.480464,49.952511],[21.462872,49.992358],[21.486583,50.011532],[21.512015,50.007722],[21.525592,50.038383],[21.499777,50.047102],[21.500925,50.077269],[21.541654,50.082178],[21.540124,50.097636],[21.564983,50.112353],[21.56766,50.129395],[21.51088,50.161252],[21.480668,50.168356],[21.467016,50.158679],[21.443687,50.166886],[21.369912,50.167654],[21.371789,50.155984],[21.317669,50.151136],[21.302754,50.130792],[21.219901,50.134101],[21.178025,50.143269],[21.173053,50.139592],[21.156991,50.138367],[21.143988,50.133954],[21.146665,50.126109],[21.193705,50.12071],[21.176495,50.114089],[21.199059,50.095447],[21.157756,50.089558],[21.165787,50.078761],[21.178407,50.080479],[21.171523,50.065997],[21.140163,50.051266],[21.190676,50.029397],[21.180732,50.011705],[21.155492,50.005315],[21.14899,49.977532],[21.177673,49.928565],[21.186469,49.928319],[21.191823,49.932011],[21.246894,49.929304],[21.279401,49.925118]]]}},{"type":"Feature","properties":{"nazwa":"Brzostek"},"geometry":{"type":"Polygon","coordinates":[[[21.300385,49.842187],[21.301226,49.842551],[21.351204,49.836833],[21.350106,49.871679],[21.37949,49.866183],[21.412072,49.82861],[21.442598,49.838778],[21.477043,49.840194],[21.483967,49.872489],[21.523145,49.892911],[21.509214,49.909823],[21.498669,49.946248],[21.48119,49.952116],[21.42429,49.951409],[21.374534,49.941044],[21.359829,49.923711],[21.328757,49.91871],[21.321495,49.92806],[21.281979,49.92632],[21.28485,49.923602],[21.288903,49.910989],[21.281472,49.893019],[21.261545,49.885729],[21.231148,49.883227],[21.227433,49.887579],[21.224562,49.884859],[21.22794,49.868208],[21.224562,49.852205],[21.251075,49.841316],[21.266104,49.839573],[21.264078,49.842949],[21.268131,49.845127],[21.269651,49.843821],[21.282147,49.845998],[21.300385,49.842187]]]}},{"type":"Feature","properties":{"nazwa":"Wielopole Skrzyńskie"},"geometry":{"type":"Polygon","coordinates":[[[21.501132,49.946267],[21.510317,49.91032],[21.524981,49.89337],[21.541019,49.88797],[21.558078,49.907668],[21.600598,49.923015],[21.671926,49.926399],[21.676085,49.934196],[21.695904,49.952656],[21.69377,49.963089],[21.689113,49.971525],[21.640455,49.971232],[21.609255,49.980099],[21.615818,49.994753],[21.559375,49.9952],[21.542281,49.96954],[21.546453,49.955236],[21.501132,49.946267]]]}},{"type":"Feature","properties":{"nazwa":"Nowa Dęba, Baranów Sandomierski"},"geometry":{"type":"Polygon","coordinates":[[[21.483675,50.496357],[21.532088,50.450851],[21.566215,50.435815],[21.550908,50.400959],[21.596414,50.38742],[21.63807,50.390619],[21.68098,50.351887],[21.721381,50.33347],[21.798794,50.353089],[21.825475,50.335392],[21.878674,50.359732],[21.894232,50.398778],[21.880232,50.391056],[21.851124,50.462744],[21.880734,50.473286],[21.86618,50.480632],[21.816192,50.518461],[21.767008,50.497555],[21.710296,50.534157],[21.699685,50.53394],[21.686412,50.534437],[21.684727,50.534784],[21.680542,50.535758],[21.666144,50.536173],[21.657644,50.532097],[21.649367,50.523241],[21.643157,50.522939],[21.635875,50.522057],[21.628907,50.521182],[21.62318,50.520321],[21.615865,50.518561],[21.606527,50.514565],[21.60296,50.519557],[21.593084,50.516147],[21.554439,50.520615],[21.483675,50.496357]]]}},{"type":"Feature","properties":{"nazwa":"Mielec"},"geometry":{"type":"Polygon","coordinates":[[[21.222405,50.311135],[21.238515,50.302367],[21.261895,50.306673],[21.285276,50.31094],[21.300085,50.303172],[21.327328,50.265138],[21.349007,50.278672],[21.375853,50.268643],[21.346486,50.23165],[21.395389,50.227682],[21.36514,50.199291],[21.369992,50.167896],[21.443875,50.167169],[21.466877,50.159015],[21.480678,50.168542],[21.510612,50.161598],[21.608608,50.177866],[21.602054,50.209094],[21.574262,50.230385],[21.600289,50.233932],[21.609394,50.250197],[21.555836,50.275985],[21.529872,50.294951],[21.574994,50.301915],[21.566108,50.332699],[21.600789,50.342703],[21.621712,50.361521],[21.59871,50.385838],[21.550107,50.400693],[21.565231,50.435026],[21.531201,50.450277],[21.482298,50.496161],[21.459611,50.495038],[21.44625,50.49167],[21.442469,50.483972],[21.453561,50.46456],[21.449023,50.459907],[21.39938,50.438719],[21.369886,50.441288],[21.312917,50.423143],[21.300045,50.414148],[21.27887,50.406919],[21.281895,50.39519],[21.277358,50.391172],[21.259712,50.391815],[21.253662,50.386833],[21.249629,50.37673],[21.232488,50.37448],[21.22543,50.367405],[21.220388,50.357114],[21.208288,50.354862],[21.216607,50.342315],[21.219884,50.33588],[21.211313,50.330248],[21.220388,50.323006],[21.217363,50.32188],[21.222405,50.311135]]]}}]}