{"type":"FeatureCollection","features":[{"type":"Feature","properties":{"nazwa":"Augustów"},"geometry":{"type":"Polygon","coordinates":[[[22.780838,53.92274],[22.781181,53.864878],[22.748566,53.841387],[22.727623,53.832473],[22.728653,53.802476],[22.698097,53.761702],[22.733459,53.752568],[22.744789,53.730435],[22.72625,53.716622],[22.733542,53.694354],[22.778781,53.676706],[22.807743,53.676431],[22.832566,53.676249],[22.858495,53.675523],[22.879068,53.640378],[22.897657,53.643947],[22.888723,53.670907],[22.918028,53.684134],[22.93795,53.697813],[22.949898,53.713912],[22.958411,53.724311],[22.972366,53.727988],[22.984011,53.73107],[22.994852,53.73445],[23.054598,53.749591],[23.108616,53.758307],[23.153507,53.767981],[23.092918,53.824165],[23.115921,53.843818],[23.14579,53.853742],[23.140297,53.871356],[23.079185,53.870344],[23.060989,53.88613],[23.133774,53.953661],[23.148193,53.956692],[23.079185,53.961338],[23.088799,53.989404],[23.129311,54.004339],[23.126221,54.020276],[23.034554,54.009383],[22.987862,54.016444],[22.92469,54.006962],[22.913017,54.011804],[22.871819,53.99667],[22.886581,53.967801],[22.823895,53.927505],[22.780838,53.92274]]]}},{"type":"Feature","properties":{"nazwa":"Grajewo"},"geometry":{"type":"Polygon","coordinates":[[[22.154415,53.55066],[22.18611,53.518222],[22.246857,53.541725],[22.271196,53.514091],[22.253591,53.482875],[22.233345,53.446195],[22.270922,53.442204],[22.306088,53.412063],[22.339826,53.416634],[22.390432,53.399264],[22.384298,53.378229],[22.498921,53.347738],[22.541395,53.399032],[22.588791,53.403582],[22.620125,53.419258],[22.664186,53.423395],[22.686574,53.417555],[22.704995,53.41224],[22.719802,53.419258],[22.715714,53.452714],[22.803352,53.465],[22.850837,53.454095],[22.859581,53.452195],[22.875939,53.452035],[22.880245,53.4808],[22.880535,53.507891],[22.858158,53.570814],[22.871688,53.605034],[22.875058,53.620186],[22.879065,53.64016],[22.858158,53.67541],[22.818433,53.676116],[22.778414,53.676531],[22.733181,53.694181],[22.726009,53.716834],[22.744525,53.730691],[22.733242,53.75251],[22.698176,53.761471],[22.61126,53.706284],[22.56372,53.709007],[22.48551,53.68086],[22.476309,53.65542],[22.414968,53.66269],[22.29382,53.611774],[22.154415,53.55066]]]}},{"type":"Feature","properties":{"nazwa":"Siemiatycze"},"geometry":{"type":"Polygon","coordinates":[[[23.286501,52.423918],[23.218422,52.493006],[23.284095,52.500502],[23.267677,52.515492],[23.165063,52.531724],[23.138405,52.576633],[23.189727,52.586608],[23.183571,52.606557],[23.255393,52.600329],[23.2841,52.64394],[23.222563,52.668841],[23.060408,52.77949],[22.761796,52.842813],[22.750561,52.726062],[22.464965,52.615281],[22.532684,52.532937],[22.567631,52.431632],[22.69496,52.404084],[22.848935,52.372753],[22.922849,52.387795],[23.103464,52.308806],[23.169163,52.302527],[23.286501,52.423918]]]}},{"type":"Feature","properties":{"nazwa":"Wysokie Mazowieckie"},"geometry":{"type":"Polygon","coordinates":[[[22.657585,53.143476],[22.6157,53.131942],[22.5951,53.094849],[22.560425,53.063294],[22.493134,53.050707],[22.468071,53.038736],[22.437687,53.040594],[22.441292,53.026658],[22.403011,53.008793],[22.402325,52.986994],[22.348251,52.972937],[22.34705,52.907763],[22.293146,52.871683],[22.293491,52.870891],[22.284222,52.864259],[22.281475,52.85545],[22.278679,52.855007],[22.277956,52.848345],[22.280301,52.847799],[22.281545,52.850577],[22.282829,52.850759],[22.281978,52.847718],[22.282542,52.846385],[22.285848,52.849721],[22.286797,52.854102],[22.287998,52.853376],[22.291866,52.855559],[22.29341,52.854596],[22.295885,52.856263],[22.298717,52.857583],[22.300485,52.857767],[22.301941,52.858213],[22.301624,52.856695],[22.303633,52.856347],[22.307739,52.857626],[22.309582,52.848472],[22.305578,52.838839],[22.301322,52.839304],[22.300454,52.836747],[22.294422,52.836686],[22.288698,52.835232],[22.282371,52.833519],[22.274365,52.831444],[22.270674,52.839756],[22.274603,52.840067],[22.27508,52.841255],[22.270832,52.841869],[22.266484,52.843477],[22.26167,52.84462],[22.26186,52.841838],[22.262545,52.836144],[22.253481,52.835096],[22.252325,52.833466],[22.248693,52.834448],[22.243682,52.834495],[22.242721,52.832943],[22.251778,52.831499],[22.250442,52.827922],[22.251574,52.825424],[22.254599,52.823239],[22.258399,52.817751],[22.262887,52.815488],[22.268952,52.803774],[22.275746,52.792039],[22.278284,52.789318],[22.279906,52.785003],[22.277073,52.78363],[22.278986,52.782951],[22.281068,52.783783],[22.282339,52.780939],[22.284183,52.778304],[22.290087,52.779117],[22.29283,52.780841],[22.297043,52.781209],[22.301564,52.783354],[22.301377,52.774839],[22.308083,52.774213],[22.307696,52.771843],[22.299971,52.772029],[22.300037,52.76962],[22.303759,52.769916],[22.304361,52.766754],[22.297122,52.767604],[22.296965,52.765208],[22.301363,52.76422],[22.301673,52.755135],[22.312468,52.755581],[22.306517,52.748654],[22.316054,52.747803],[22.323875,52.748816],[22.325477,52.742812],[22.333604,52.741065],[22.337088,52.750641],[22.335682,52.75188],[22.335956,52.7545],[22.341157,52.755604],[22.345633,52.757729],[22.342174,52.761082],[22.339681,52.765385],[22.341465,52.771881],[22.344335,52.778378],[22.353605,52.776085],[22.365287,52.778102],[22.37697,52.778951],[22.380644,52.778673],[22.381548,52.77862],[22.382835,52.78092],[22.384727,52.784681],[22.386145,52.785088],[22.377358,52.794604],[22.387826,52.795813],[22.397328,52.795415],[22.399063,52.794977],[22.399806,52.795023],[22.402013,52.794046],[22.405113,52.79471],[22.408212,52.795519],[22.409368,52.793951],[22.43494,52.792643],[22.456309,52.788525],[22.468682,52.803403],[22.458624,52.819963],[22.445532,52.820607],[22.429906,52.822345],[22.421034,52.833031],[22.413128,52.842987],[22.415334,52.853038],[22.417101,52.858866],[22.41911,52.864693],[22.432561,52.875445],[22.441278,52.881878],[22.44903,52.887072],[22.459456,52.877286],[22.46795,52.868957],[22.477841,52.879627],[22.489542,52.89212],[22.512797,52.89088],[22.535569,52.889057],[22.579906,52.886285],[22.598245,52.906502],[22.607656,52.916939],[22.61743,52.927594],[22.673536,52.945805],[22.666168,52.972937],[22.605057,52.974074],[22.610035,53.005488],[22.644024,53.020463],[22.663381,53.044169],[22.6966,53.064463],[22.72823,53.054582],[22.744366,53.070183],[22.758813,53.080076],[22.772856,53.089981],[22.77658,53.091527],[22.780385,53.093174],[22.803385,53.099433],[22.812252,53.120508],[22.754402,53.114636],[22.698097,53.125556],[22.657585,53.143476]]]}},{"type":"Feature","properties":{"nazwa":"Choroszcz, Łapy"},"geometry":{"type":"Polygon","coordinates":[[[22.909241,53.216518],[22.890358,53.177646],[22.884669,53.143762],[22.859681,53.141571],[22.835083,53.139151],[22.813454,53.120611],[22.803957,53.098994],[22.78072,53.092764],[22.773044,53.089276],[22.745242,53.069709],[22.728644,53.0535],[22.697447,53.062729],[22.66812,53.044692],[22.647659,53.020493],[22.612897,53.005716],[22.606737,52.97534],[22.668483,52.974173],[22.674621,52.94562],[22.69099,52.941304],[22.713497,52.909233],[22.754079,52.854508],[22.770497,52.844267],[22.918273,52.811551],[23.104403,52.935469],[23.130348,52.954502],[23.141629,52.991185],[23.08861,53.02173],[23.178855,53.055644],[23.079586,53.067168],[23.073614,53.089149],[23.114018,53.104449],[23.078203,53.110713],[23.064948,53.133898],[23.071804,53.155212],[23.027515,53.161799],[22.97327,53.185259],[22.93808,53.177749],[22.931385,53.207266],[22.909241,53.216518]]]}},{"type":"Feature","properties":{"nazwa":"Zambrów"},"geometry":{"type":"Polygon","coordinates":[[[22.091874,53.117011],[22.072575,53.107111],[22.058041,53.099604],[22.042925,53.083402],[22.07016,53.050295],[22.040291,53.012098],[22.032738,52.985237],[21.980896,52.978002],[22.030678,52.934155],[21.994972,52.919667],[22.010765,52.905175],[22.005959,52.878247],[22.040291,52.852547],[22.08252,52.846949],[22.099686,52.863741],[22.124748,52.844461],[22.17453,52.859181],[22.207489,52.856279],[22.216415,52.885292],[22.250061,52.878247],[22.27993,52.888606],[22.294006,52.873067],[22.346535,52.908074],[22.347908,52.973041],[22.40181,52.987304],[22.40284,53.008793],[22.440605,53.026968],[22.437515,53.041213],[22.38121,53.062366],[22.325592,53.066079],[22.302541,53.062646],[22.293341,53.076295],[22.255839,53.07855],[22.236082,53.058653],[22.226744,53.048604],[22.217676,53.038723],[22.202881,53.043703],[22.173276,53.048867],[22.142756,53.066361],[22.111409,53.052679],[22.095769,53.058664],[22.099414,53.075339],[22.101127,53.083698],[22.103573,53.092014],[22.091874,53.117011]]]}},{"type":"Feature","properties":{"nazwa":"Tykocin"},"geometry":{"type":"Polygon","coordinates":[[[22.616025,53.237591],[22.616799,53.228944],[22.617933,53.220296],[22.619801,53.203075],[22.642136,53.20593],[22.675438,53.157477],[22.658143,53.143501],[22.698891,53.125775],[22.754874,53.114803],[22.812259,53.120639],[22.835233,53.139553],[22.884044,53.144193],[22.889564,53.17763],[22.908915,53.216615],[22.884307,53.226257],[22.854908,53.230126],[22.779937,53.21418],[22.772507,53.238476],[22.742078,53.250846],[22.730707,53.274085],[22.697498,53.278172],[22.680936,53.262262],[22.664291,53.246581],[22.639066,53.250254],[22.616025,53.237591]]]}},{"type":"Feature","properties":{"nazwa":"Białystok Północ"},"geometry":{"type":"Polygon","coordinates":[[[23.11068,53.139935],[23.112117,53.139932],[23.11341,53.140065],[23.125307,53.141699],[23.127226,53.143751],[23.129215,53.144973],[23.131448,53.148633],[23.133553,53.148811],[23.135272,53.150379],[23.136093,53.152296],[23.140853,53.159848],[23.146047,53.159683],[23.151241,53.159626],[23.151465,53.160654],[23.151206,53.162532],[23.149702,53.165845],[23.148185,53.169669],[23.146715,53.176428],[23.114881,53.174309],[23.114008,53.179634],[23.113314,53.186032],[23.11282,53.190573],[23.072946,53.180921],[23.071464,53.167121],[23.070387,53.161596],[23.070182,53.158176],[23.069709,53.155866],[23.072214,53.15547],[23.070306,53.147432],[23.091272,53.143434],[23.101157,53.141667],[23.106221,53.141074],[23.11068,53.139935]]]}},{"type":"Feature","properties":{"nazwa":"Mońki"},"geometry":{"type":"Polygon","coordinates":[[[22.472191,53.333333],[22.472878,53.301338],[22.457428,53.263775],[22.426822,53.218942],[22.479401,53.215696],[22.551842,53.221863],[22.566605,53.210145],[22.603683,53.213229],[22.619528,53.203029],[22.6157,53.237688],[22.639046,53.250426],[22.664108,53.246728],[22.697411,53.278353],[22.730713,53.274247],[22.742726,53.306404],[22.756,53.312284],[22.816788,53.327127],[22.837566,53.355944],[22.891964,53.356228],[22.926407,53.419763],[22.971039,53.423855],[22.970352,53.442264],[23.012581,53.441241],[23.059959,53.466183],[23.069572,53.494378],[23.05687,53.518063],[23.05584,53.53439],[23.020477,53.533778],[22.995345,53.590919],[22.973988,53.594923],[22.949287,53.600004],[22.925981,53.586892],[22.904423,53.575302],[22.85892,53.570459],[22.867565,53.54545],[22.875841,53.522557],[22.881495,53.507981],[22.88126,53.481662],[22.876711,53.45172],[22.859373,53.451516],[22.802639,53.464548],[22.749284,53.456734],[22.716553,53.452491],[22.720585,53.418842],[22.704964,53.411783],[22.663765,53.423037],[22.620506,53.41874],[22.588577,53.402982],[22.541542,53.398684],[22.499313,53.347272],[22.472191,53.333333]]]}},{"type":"Feature","properties":{"nazwa":"Sokółka"},"geometry":{"type":"Polygon","coordinates":[[[23.625412,53.601062],[23.605156,53.600247],[23.57769,53.614303],[23.563271,53.603711],[23.508339,53.597395],[23.449974,53.601877],[23.416314,53.598002],[23.434181,53.5762],[23.363348,53.564666],[23.371927,53.550083],[23.346966,53.52205],[23.330581,53.503212],[23.306225,53.487405],[23.282839,53.482653],[23.241378,53.476536],[23.172436,53.482544],[23.123535,53.483757],[23.070558,53.480928],[23.064895,53.465812],[23.067612,53.427789],[23.06082,53.404311],[23.11108,53.397832],[23.11108,53.353263],[23.214994,53.356506],[23.307838,53.354445],[23.356934,53.341738],[23.382112,53.291807],[23.390261,53.279702],[23.392978,53.274829],[23.415943,53.270694],[23.444094,53.26582],[23.463364,53.320825],[23.57048,53.336818],[23.612366,53.349014],[23.600006,53.371859],[23.709011,53.408406],[23.726177,53.408406],[23.707466,53.436333],[23.67897,53.490599],[23.667297,53.512858],[23.659229,53.521431],[23.651333,53.544388],[23.627987,53.593116],[23.625412,53.601062]]]}},{"type":"Feature","properties":{"nazwa":"Białystok Zachód"},"geometry":{"type":"Polygon","coordinates":[[[23.081149,53.070055],[23.090792,53.076175],[23.095401,53.077415],[23.101954,53.077955],[23.105946,53.079428],[23.111722,53.083707],[23.115463,53.091455],[23.123697,53.096093],[23.131269,53.099472],[23.136171,53.100136],[23.139224,53.101071],[23.133597,53.104916],[23.131772,53.105581],[23.130664,53.108361],[23.131023,53.111379],[23.129587,53.113773],[23.121605,53.123232],[23.11544,53.12431],[23.121276,53.137556],[23.098971,53.141341],[23.085803,53.143908],[23.069702,53.146565],[23.066709,53.134379],[23.080087,53.110967],[23.115703,53.104698],[23.076055,53.088221],[23.081149,53.070055]]]}},{"type":"Feature","properties":{"nazwa":"Supraśl, Wasilków"},"geometry":{"type":"Polygon","coordinates":[[[22.88558,53.226515],[22.932854,53.207451],[22.93591,53.193852],[22.939182,53.178842],[22.973297,53.186067],[23.027644,53.162042],[23.069165,53.155955],[23.070966,53.168203],[23.072472,53.181155],[23.113334,53.190934],[23.115303,53.174662],[23.202489,53.180345],[23.243332,53.167172],[23.456232,53.125138],[23.523183,53.152234],[23.516755,53.204369],[23.480888,53.258465],[23.39199,53.273825],[23.33141,53.236215],[23.327034,53.23325],[23.324958,53.231895],[23.322973,53.231837],[23.285336,53.237334],[23.226086,53.232864],[23.153957,53.249951],[23.155697,53.27683],[23.078986,53.29356],[23.024106,53.281295],[22.978069,53.287634],[22.948928,53.304776],[22.911884,53.285942],[22.949783,53.273376],[22.951313,53.268882],[22.950495,53.263501],[22.942318,53.259435],[22.923228,53.260262],[22.88558,53.226515]]]}},{"type":"Feature","properties":{"nazwa":"Białystok Centrum"},"geometry":{"coordinates":[[[23.111133,53.139321],[23.12135,53.137613],[23.115489,53.124336],[23.121672,53.123297],[23.129661,53.113774],[23.144246,53.117703],[23.147509,53.11265],[23.156884,53.119623],[23.159503,53.119285],[23.163571,53.123788],[23.173698,53.128351],[23.168743,53.132424],[23.163244,53.13479],[23.164674,53.135708],[23.15806,53.141294],[23.156972,53.147273],[23.151433,53.156312],[23.151232,53.159041],[23.141627,53.159516],[23.136893,53.151754],[23.136088,53.149869],[23.133745,53.148338],[23.131832,53.148036],[23.130059,53.144787],[23.127642,53.143542],[23.125615,53.14135],[23.113046,53.139502],[23.111314,53.139574],[23.111133,53.139321]]],"type":"Polygon"}},{"type":"Feature","properties":{"nazwa":"Michałowo"},"geometry":{"type":"Polygon","coordinates":[[[23.528423,53.151425],[23.455882,53.122032],[23.39741,53.021291],[23.363725,52.966321],[23.374645,52.961546],[23.415215,52.961013],[23.431728,52.971931],[23.490973,52.987103],[23.503267,52.972355],[23.563817,52.971137],[23.613694,52.951204],[23.616899,52.927351],[23.64724,52.928013],[23.73926,52.936199],[23.788778,52.933494],[23.819758,52.90727],[23.915947,52.901855],[23.909535,52.942836],[23.938913,52.958284],[23.918393,52.983],[23.918393,53.02159],[23.879812,53.065519],[23.865704,53.084781],[23.860574,53.111734],[23.759651,53.128861],[23.528423,53.151425]]]}},{"type":"Feature","properties":{"nazwa":"Sejny"},"geometry":{"type":"Polygon","coordinates":[[[23.153741,54.295523],[23.131516,54.275937],[23.144357,54.25933],[23.110773,54.246058],[23.153991,54.197723],[23.149793,54.181107],[23.111763,54.170845],[23.082951,54.106378],[23.121162,54.093368],[23.118431,54.068165],[23.142893,54.030911],[23.128224,54.019161],[23.131434,54.003489],[23.089455,53.98697],[23.083528,53.963733],[23.154647,53.958503],[23.137855,53.950365],[23.08748,53.904419],[23.365039,53.869722],[23.508264,53.886958],[23.507277,53.956178],[23.486534,53.97361],[23.473693,53.993939],[23.50135,54.017159],[23.518082,54.040965],[23.521341,54.066244],[23.50055,54.1064],[23.489981,54.113953],[23.48603,54.149835],[23.452439,54.170664],[23.421819,54.174712],[23.378954,54.226101],[23.360186,54.230143],[23.340431,54.245152],[23.281164,54.256117],[23.246592,54.25554],[23.233751,54.260344],[23.199179,54.283677],[23.153741,54.295523]]]}},{"type":"Feature","properties":{"nazwa":"Białystok Wschód"},"geometry":{"type":"Polygon","coordinates":[[[23.151762,53.156367],[23.157386,53.147874],[23.158489,53.141695],[23.161534,53.138497],[23.165068,53.135688],[23.163574,53.13483],[23.168987,53.13245],[23.173763,53.12837],[23.176244,53.12948],[23.176598,53.129346],[23.177371,53.129904],[23.178053,53.130398],[23.177526,53.130673],[23.18037,53.131432],[23.180114,53.132155],[23.186217,53.139056],[23.197479,53.135016],[23.199593,53.134657],[23.201058,53.134248],[23.202007,53.133953],[23.203034,53.133668],[23.204959,53.133076],[23.225384,53.12665],[23.229714,53.125346],[23.234958,53.125826],[23.252238,53.125281],[23.269385,53.125301],[23.314574,53.125321],[23.300119,53.155652],[23.242121,53.16726],[23.22203,53.173855],[23.202526,53.180133],[23.147284,53.176535],[23.148105,53.171192],[23.150195,53.165429],[23.151444,53.162701],[23.151762,53.156367]]]}},{"type":"Feature","properties":{"nazwa":"Białystok Południe"},"geometry":{"type":"Polygon","coordinates":[[[23.081189,53.070048],[23.180922,53.05842],[23.21292,53.066644],[23.237455,53.079823],[23.262552,53.084962],[23.308227,53.105014],[23.315127,53.124802],[23.266889,53.125146],[23.25099,53.125098],[23.234881,53.125567],[23.229831,53.125162],[23.225365,53.126476],[23.205221,53.132944],[23.201033,53.134207],[23.199612,53.134593],[23.197414,53.1349],[23.186229,53.138869],[23.184165,53.136551],[23.18218,53.13482],[23.180448,53.132755],[23.180293,53.13169],[23.180759,53.131398],[23.177629,53.130705],[23.178117,53.130412],[23.176585,53.129293],[23.176236,53.129437],[23.16367,53.123788],[23.159541,53.119258],[23.156921,53.119578],[23.147463,53.112566],[23.144222,53.11763],[23.129747,53.113766],[23.131079,53.11142],[23.130768,53.108355],[23.131878,53.105663],[23.13361,53.104996],[23.139293,53.101057],[23.136096,53.100097],[23.131167,53.099378],[23.123844,53.096043],[23.115629,53.091404],[23.111811,53.083684],[23.106083,53.079443],[23.101998,53.077896],[23.095337,53.077363],[23.090849,53.076108],[23.081189,53.070048]]]}},{"type":"Feature","properties":{"nazwa":"Łomża, Kolno"},"geometry":{"type":"Polygon","coordinates":[[[22.23479,53.057969],[22.255538,53.078812],[22.293899,53.07658],[22.303025,53.062977],[22.42736,53.220871],[22.439775,53.238486],[22.451775,53.256101],[22.354314,53.243599],[22.351025,53.222923],[22.267128,53.233756],[22.193107,53.266233],[22.193096,53.301642],[22.232553,53.311475],[22.222678,53.331123],[22.237477,53.344869],[22.224333,53.376271],[22.249004,53.395887],[22.234196,53.417452],[22.268758,53.441958],[22.232555,53.445866],[22.270466,53.513939],[22.246678,53.541464],[22.185971,53.517774],[22.153408,53.549941],[22.098766,53.530281],[22.072786,53.531289],[22.031235,53.494225],[21.988717,53.51787],[21.905234,53.489626],[21.887561,53.457063],[21.806364,53.457387],[21.75442,53.480428],[21.6765,53.487003],[21.607415,53.475496],[21.661551,53.390217],[21.689411,53.36572],[21.66297,53.351229],[21.693815,53.339056],[21.741249,53.311714],[21.741256,53.304136],[21.666806,53.304136],[21.664595,53.26259],[21.665168,53.23749],[21.702616,53.171765],[21.709263,53.131415],[21.761104,53.114195],[21.81956,53.119182],[21.854832,53.07813],[21.923771,53.086733],[21.964551,53.064878],[22.041675,53.083416],[22.056221,53.099356],[22.092405,53.117822],[22.104001,53.092048],[22.101047,53.081774],[22.096901,53.058677],[22.111017,53.053248],[22.142874,53.066933],[22.173441,53.049074],[22.203155,53.043929],[22.217477,53.038992],[22.23479,53.057969]]]}},{"type":"Feature","properties":{"nazwa":"Suwałki Północ"},"geometry":{"type":"Polygon","coordinates":[[[23.050346,54.312718],[23.048286,54.296492],[23.016014,54.292084],[22.983398,54.259409],[22.909584,54.27164],[22.823753,54.266026],[22.805901,54.266026],[22.757492,54.296893],[22.750626,54.298095],[22.744789,54.29008],[22.700157,54.277854],[22.693291,54.274848],[22.644539,54.287275],[22.611923,54.260211],[22.575188,54.266628],[22.579994,54.258206],[22.568665,54.258406],[22.562141,54.25279],[22.565918,54.249782],[22.559738,54.247375],[22.556992,54.24918],[22.551498,54.24918],[22.552185,54.251386],[22.531242,54.248779],[22.526436,54.229517],[22.514076,54.224901],[22.518196,54.218478],[22.515793,54.216471],[22.50927,54.219883],[22.505493,54.217675],[22.492447,54.214463],[22.49691,54.210649],[22.489014,54.206031],[22.484207,54.208038],[22.483521,54.203018],[22.476997,54.201211],[22.481461,54.1986],[22.485924,54.197596],[22.48764,54.193579],[22.502747,54.193177],[22.504807,54.189763],[22.50824,54.190767],[22.509956,54.187553],[22.501717,54.186147],[22.50824,54.174694],[22.51442,54.173287],[22.519226,54.167459],[22.519226,54.160826],[22.526093,54.161429],[22.536049,54.15962],[22.534676,54.155197],[22.537422,54.154594],[22.535362,54.15198],[22.538795,54.146953],[22.544289,54.14816],[22.546005,54.145143],[22.544632,54.144339],[22.546692,54.137903],[22.581024,54.142127],[22.577934,54.145948],[22.59201,54.150774],[22.593727,54.140719],[22.602997,54.135691],[22.620163,54.113761],[22.637329,54.106918],[22.634583,54.092825],[22.624283,54.09202],[22.624626,54.087187],[22.61158,54.085375],[22.60437,54.081951],[22.606262,54.073433],[22.60178,54.067903],[22.596474,54.066239],[22.626948,54.065745],[22.636487,54.062441],[22.662918,54.063992],[22.676939,54.064801],[22.680157,54.068173],[22.687052,54.069927],[22.686247,54.072084],[22.691365,54.078768],[22.694928,54.08019],[22.696882,54.080723],[22.698931,54.081554],[22.700942,54.082329],[22.703643,54.08324],[22.706286,54.084032],[22.713641,54.081959],[22.72137,54.081672],[22.725585,54.080156],[22.726526,54.080206],[22.72857,54.080212],[22.729415,54.08015],[22.73086,54.080263],[22.732401,54.080376],[22.735482,54.080093],[22.740778,54.079924],[22.749734,54.07885],[22.76041,54.074548],[22.768665,54.070516],[22.775936,54.069979],[22.780751,54.06981],[22.789083,54.071166],[22.796931,54.074584],[22.804547,54.07786],[22.814369,54.084187],[22.851172,54.088206],[22.866423,54.091905],[22.870179,54.091397],[22.873886,54.091171],[22.91884,54.099011],[22.92091,54.094544],[22.928756,54.095813],[22.930059,54.091739],[22.936463,54.091867],[22.945126,54.093528],[22.944583,54.090727],[22.949879,54.090309],[22.954221,54.09171],[22.960082,54.098393],[22.966309,54.097184],[22.984408,54.112199],[23.01258,54.113823],[23.029624,54.114586],[23.041915,54.112395],[23.057551,54.110132],[23.082191,54.106696],[23.110428,54.17188],[23.148193,54.18253],[23.15197,54.197395],[23.106995,54.246171],[23.140297,54.259409],[23.127594,54.276652],[23.15403,54.298095],[23.159866,54.309513],[23.150253,54.312518],[23.148193,54.314921],[23.139954,54.315922],[23.105621,54.304305],[23.101158,54.298896],[23.092575,54.298496],[23.060646,54.309914],[23.050346,54.312718]]]}},{"type":"Feature","properties":{"nazwa":"Suwałki Południe"},"geometry":{"type":"Polygon","coordinates":[[[22.814494,54.083973],[22.804851,54.077702],[22.789485,54.071049],[22.780756,54.069673],[22.775806,54.069749],[22.768766,54.070372],[22.754736,54.076663],[22.749148,54.078604],[22.740023,54.07954],[22.725536,54.079875],[22.72143,54.081548],[22.713612,54.081858],[22.70626,54.083823],[22.691547,54.078537],[22.686864,54.072206],[22.687786,54.069752],[22.680431,54.067796],[22.676919,54.064598],[22.657189,54.063284],[22.636946,54.062171],[22.625569,54.065543],[22.600273,54.065834],[22.605712,54.053794],[22.616148,54.053811],[22.670089,54.032459],[22.67845,54.010426],[22.693722,54.000554],[22.700071,53.976281],[22.718187,53.956304],[22.745959,53.94842],[22.779912,53.923747],[22.822936,53.928596],[22.885014,53.968041],[22.869582,53.99748],[22.913647,54.013224],[22.925233,54.008207],[22.988591,54.017879],[23.034984,54.010508],[23.127087,54.021478],[23.140663,54.031152],[23.116453,54.067618],[23.119605,54.09276],[23.08302,54.105802],[23.02997,54.113711],[22.984861,54.112028],[22.966865,54.096765],[22.960678,54.097911],[22.954708,54.091227],[22.950258,54.08989],[22.944071,54.090272],[22.944394,54.093008],[22.936907,54.091545],[22.929633,54.09163],[22.92833,54.095577],[22.920407,54.094303],[22.91867,54.098823],[22.873949,54.090993],[22.870367,54.091248],[22.866343,54.091767],[22.850971,54.087947],[22.814494,54.083973]]]}},{"type":"Feature","properties":{"nazwa":"Ciechanowiec, Szepietowo"},"geometry":{"type":"Polygon","coordinates":[[[22.336251,52.754371],[22.336031,52.75298],[22.335919,52.751956],[22.337504,52.750601],[22.334211,52.74081],[22.330207,52.741457],[22.325321,52.742613],[22.297511,52.671127],[22.463037,52.616739],[22.746467,52.725719],[22.761301,52.842942],[22.722886,52.894157],[22.705048,52.917479],[22.696738,52.929263],[22.687687,52.941174],[22.675507,52.944372],[22.617624,52.927468],[22.612703,52.922169],[22.607652,52.916537],[22.597228,52.904938],[22.58002,52.886138],[22.557634,52.887513],[22.534891,52.888947],[22.512911,52.890733],[22.489729,52.891932],[22.467937,52.86871],[22.463982,52.872678],[22.459035,52.87746],[22.449013,52.886899],[22.440366,52.881051],[22.432752,52.875496],[22.419161,52.864683],[22.417218,52.858855],[22.415433,52.85309],[22.413359,52.84306],[22.420509,52.833945],[22.425404,52.828109],[22.430063,52.822449],[22.445826,52.820734],[22.458814,52.820106],[22.468934,52.803353],[22.46599,52.799831],[22.463312,52.79655],[22.459784,52.792408],[22.456388,52.788376],[22.434994,52.792521],[22.427222,52.792933],[22.419977,52.793249],[22.409205,52.793882],[22.408102,52.795352],[22.402044,52.7939],[22.39982,52.79489],[22.398899,52.794849],[22.397398,52.795287],[22.39367,52.795432],[22.387938,52.795705],[22.377738,52.794493],[22.386444,52.785084],[22.384935,52.784574],[22.384129,52.782957],[22.382316,52.779556],[22.381681,52.77846],[22.376991,52.778839],[22.374814,52.77863],[22.372531,52.7785],[22.365386,52.777944],[22.353556,52.775953],[22.344457,52.778193],[22.341742,52.771998],[22.340872,52.76856],[22.340119,52.765459],[22.342531,52.761132],[22.345879,52.757684],[22.344389,52.756915],[22.34136,52.755459],[22.336251,52.754371]]]}},{"type":"Feature","properties":{"nazwa":"Bielsk Podlaski"},"geometry":{"type":"Polygon","coordinates":[[[22.922117,52.811031],[23.064656,52.781117],[23.224943,52.670205],[23.303728,52.63924],[23.327588,52.656135],[23.372413,52.6413],[23.395506,52.68167],[23.373093,52.723237],[23.373093,52.7549],[23.368175,52.803158],[23.346102,52.813833],[23.347121,52.842868],[23.33082,52.871984],[23.326736,52.889187],[23.137971,52.953742],[23.019239,52.876666],[22.922117,52.811031]]]}},{"type":"Feature","properties":{"nazwa":"Czarna Białostocka"},"geometry":{"type":"Polygon","coordinates":[[[23.188982,53.353489],[23.11192,53.350212],[23.118477,53.340647],[23.109609,53.319865],[23.08102,53.327689],[23.077129,53.305102],[23.027656,53.298428],[23.026617,53.282365],[23.078548,53.294117],[23.156913,53.277209],[23.155292,53.250452],[23.226173,53.233315],[23.285191,53.237601],[23.324455,53.23228],[23.390508,53.274977],[23.380878,53.290626],[23.366821,53.318048],[23.356277,53.340951],[23.307774,53.353622],[23.188982,53.353489]]]}},{"type":"Feature","properties":{"nazwa":"Hajnówka"},"geometry":{"type":"Polygon","coordinates":[[[23.329093,52.889434],[23.332869,52.87141],[23.348662,52.842183],[23.348147,52.814078],[23.370463,52.804221],[23.377673,52.751372],[23.37733,52.723],[23.401191,52.681084],[23.3763,52.638295],[23.32772,52.653187],[23.305195,52.636338],[23.284707,52.64248],[23.25633,52.59964],[23.256727,52.59915],[23.184905,52.6054],[23.191001,52.585797],[23.140459,52.576035],[23.166164,52.532596],[23.260111,52.51767],[23.269042,52.516164],[23.286224,52.49962],[23.221125,52.492327],[23.255059,52.45663],[23.286503,52.424024],[23.311802,52.425209],[23.343255,52.456474],[23.37365,52.484048],[23.39268,52.499752],[23.409533,52.516284],[23.432719,52.531542],[23.455298,52.545695],[23.496337,52.565227],[23.524666,52.578071],[23.558455,52.588888],[23.598678,52.599952],[23.635869,52.609176],[23.710839,52.617625],[23.731616,52.614454],[23.759099,52.618469],[23.784585,52.633754],[23.81508,52.648852],[23.845879,52.66432],[23.873385,52.679343],[23.886431,52.681782],[23.894734,52.691722],[23.913737,52.701576],[23.934863,52.71382],[23.935916,52.753346],[23.936602,52.809824],[23.921496,52.828911],[23.919997,52.854191],[23.92141,52.892955],[23.916518,52.900721],[23.815925,52.907346],[23.788974,52.932908],[23.738677,52.935184],[23.647353,52.927528],[23.615767,52.926804],[23.612677,52.950803],[23.562552,52.970138],[23.502299,52.971585],[23.490455,52.985744],[23.432605,52.970241],[23.416812,52.959696],[23.373896,52.960833],[23.373381,52.925666],[23.389518,52.900617],[23.366343,52.888916],[23.329093,52.889434]]]}},{"type":"Feature","properties":{"nazwa":"Knyszyn"},"geometry":{"type":"Polygon","coordinates":[[[23.062706,53.464956],[23.012581,53.43981],[22.972412,53.441446],[22.972069,53.423037],[22.92778,53.419149],[22.892418,53.355674],[22.838173,53.355469],[22.817574,53.326977],[22.756119,53.312006],[22.743102,53.30637],[22.737048,53.290192],[22.731518,53.274013],[22.742386,53.251247],[22.773285,53.238921],[22.780495,53.215285],[22.854652,53.230701],[22.884724,53.22662],[22.923045,53.260581],[22.942272,53.259745],[22.949949,53.26355],[22.950942,53.268311],[22.949007,53.27316],[22.910271,53.285743],[22.948723,53.305852],[22.978249,53.288411],[23.022881,53.281843],[23.02597,53.300313],[23.075409,53.306673],[23.079529,53.329643],[23.109055,53.32103],[23.116264,53.339483],[23.109523,53.349707],[23.108711,53.397456],[23.057213,53.401959],[23.065109,53.42631],[23.062706,53.464956]]]}}]}