{"type":"FeatureCollection","features":[{"type":"Feature","properties":{"nazwa":"Kielce Południe"},"geometry":{"type":"Polygon","coordinates":[[[20.539525,50.881696],[20.510555,50.855548],[20.533395,50.838376],[20.553786,50.812397],[20.587173,50.816318],[20.611516,50.796896],[20.613602,50.796949],[20.620275,50.800797],[20.621462,50.822587],[20.622849,50.838118],[20.625629,50.855255],[20.626996,50.858526],[20.627946,50.860475],[20.628539,50.862723],[20.628777,50.863023],[20.629489,50.864747],[20.630439,50.868119],[20.63368,50.878156],[20.643305,50.888897],[20.663738,50.898683],[20.624624,50.911525],[20.621858,50.916235],[20.615542,50.921213],[20.597541,50.912452],[20.547927,50.901983],[20.539525,50.881696]]]}},{"type":"Feature","properties":{"nazwa":"Łopuszno"},"geometry":{"type":"Polygon","coordinates":[[[20.054855,51.014187],[20.036316,50.994743],[20.041122,50.990421],[20.037689,50.970535],[20.023956,50.967508],[20.014343,50.957994],[19.99649,50.942421],[20.01709,50.921216],[20.033398,50.912883],[20.037861,50.893505],[20.083008,50.877369],[20.075111,50.858844],[20.086441,50.846272],[20.12249,50.831746],[20.140686,50.844755],[20.216904,50.831746],[20.249176,50.864911],[20.296555,50.854726],[20.32196,50.867728],[20.343933,50.898702],[20.34462,50.912775],[20.32093,50.929656],[20.354919,50.938743],[20.367279,50.961022],[20.348053,51.007274],[20.295181,51.025417],[20.2145,51.008786],[20.130386,51.027576],[20.05434,51.016671],[20.054855,51.014187]]]}},{"type":"Feature","properties":{"nazwa":"Wąchock"},"geometry":{"type":"Polygon","coordinates":[[[20.97908,51.164275],[20.950241,51.141879],[20.975647,51.132831],[20.958481,51.076351],[20.907669,51.082822],[20.902176,51.07894],[20.915909,51.034486],[20.959854,51.017642],[20.99762,51.022394],[21.057358,51.001657],[21.075897,51.009435],[21.070404,51.018074],[21.035385,51.021098],[21.030579,51.028008],[21.053238,51.076351],[21.092377,51.068154],[21.09993,51.061681],[21.096497,51.07894],[21.10199,51.081528],[21.145935,51.089723],[21.145935,51.101797],[21.154861,51.106109],[21.152802,51.119903],[21.152115,51.125075],[21.161041,51.126368],[21.151428,51.128091],[21.141815,51.125937],[21.130829,51.127229],[21.130829,51.133262],[21.125336,51.140156],[21.090317,51.153078],[21.093063,51.164705],[21.116409,51.181926],[21.115723,51.190533],[21.10817,51.191394],[21.10817,51.19957],[21.069717,51.209034],[21.076584,51.198279],[21.073151,51.177191],[21.057358,51.155662],[21.021652,51.157385],[21.029892,51.150063],[20.996933,51.14274],[20.99144,51.152217],[20.996933,51.160399],[20.97908,51.164275]]]}},{"type":"Feature","properties":{"nazwa":"Sandomierz"},"geometry":{"type":"Polygon","coordinates":[[[21.585474,50.731186],[21.557665,50.731023],[21.534405,50.712602],[21.526508,50.688519],[21.551056,50.666219],[21.520543,50.655719],[21.525564,50.637541],[21.533203,50.622242],[21.601095,50.619682],[21.618605,50.604432],[21.666927,50.600237],[21.671562,50.607537],[21.723747,50.645107],[21.73336,50.641841],[21.749496,50.655338],[21.763573,50.64859],[21.780739,50.645542],[21.777992,50.659038],[21.798248,50.682537],[21.824341,50.693848],[21.827774,50.715591],[21.842194,50.739497],[21.840134,50.76035],[21.844597,50.767951],[21.843224,50.779024],[21.806831,50.792264],[21.73439,50.790962],[21.719627,50.779024],[21.689758,50.772076],[21.623497,50.794434],[21.600838,50.781412],[21.596718,50.764259],[21.567879,50.766214],[21.552601,50.759645],[21.585474,50.731186]]]}},{"type":"Feature","properties":{"nazwa":"Busko Zdrój"},"geometry":{"type":"Polygon","coordinates":[[[20.8148,50.433345],[20.829391,50.450072],[20.844498,50.465372],[20.838661,50.48176],[20.86235,50.495958],[20.869217,50.512117],[20.856171,50.530889],[20.89119,50.548344],[20.901489,50.574734],[20.924149,50.600019],[20.909386,50.609389],[20.908699,50.634438],[20.831108,50.634873],[20.814629,50.613528],[20.814285,50.568193],[20.789223,50.556416],[20.775833,50.53569],[20.748367,50.542454],[20.748024,50.561868],[20.705109,50.56056],[20.684166,50.545727],[20.67627,50.527615],[20.608292,50.522377],[20.64846,50.500326],[20.621681,50.463405],[20.649834,50.451383],[20.664253,50.433454],[20.656,50.397572],[20.71867,50.392542],[20.757809,50.364956],[20.794731,50.361178],[20.808792,50.385319],[20.826645,50.40622],[20.813427,50.43258],[20.8148,50.433345]]]}},{"type":"Feature","properties":{"nazwa":"Pińczów"},"geometry":{"type":"Polygon","coordinates":[[[20.34256,50.544854],[20.34874,50.529143],[20.333633,50.50513],[20.374832,50.490279],[20.364532,50.472802],[20.33432,50.46712],[20.329514,50.449635],[20.380325,50.439577],[20.401611,50.413823],[20.44178,50.407971],[20.465641,50.389806],[20.487614,50.39112],[20.540829,50.451056],[20.575161,50.439031],[20.587692,50.421644],[20.619965,50.400202],[20.651973,50.397205],[20.65664,50.415349],[20.659275,50.434329],[20.646572,50.451056],[20.618591,50.463405],[20.645199,50.499998],[20.603142,50.522813],[20.604515,50.523577],[20.674038,50.529252],[20.682106,50.546817],[20.640392,50.556852],[20.624084,50.571354],[20.630093,50.588904],[20.657387,50.592936],[20.659618,50.615271],[20.641937,50.640861],[20.647259,50.661867],[20.60503,50.668613],[20.583916,50.668722],[20.553703,50.641079],[20.499802,50.635635],[20.496798,50.604323],[20.512762,50.595552],[20.513363,50.594843],[20.491047,50.566448],[20.473881,50.558379],[20.456457,50.529907],[20.415001,50.539836],[20.34256,50.544854]]]}},{"type":"Feature","properties":{"nazwa":"Skarżysko-Kamienna"},"geometry":{"type":"Polygon","coordinates":[[[20.976334,51.166858],[20.962601,51.172025],[20.922089,51.190533],[20.913162,51.178482],[20.88089,51.152217],[20.849304,51.166428],[20.823898,51.173316],[20.814972,51.163844],[20.828705,51.156524],[20.817719,51.143171],[20.789566,51.147479],[20.785446,51.143171],[20.765533,51.147048],[20.761414,51.156524],[20.720215,51.166428],[20.700302,51.148771],[20.686569,51.145325],[20.682449,51.120765],[20.663223,51.100504],[20.630951,51.093604],[20.610352,51.077214],[20.611038,51.057797],[20.652237,51.066859],[20.678329,51.050891],[20.650864,51.029304],[20.687943,51.016347],[20.707169,51.031031],[20.746307,51.012027],[20.741501,50.979182],[20.76416,50.977021],[20.771027,50.953236],[20.794373,50.954967],[20.830078,50.939393],[20.842438,50.953236],[20.823212,50.958427],[20.832825,50.99712],[20.853081,51.001657],[20.876427,51.023042],[20.911102,51.032758],[20.895996,51.081528],[20.906296,51.086273],[20.953674,51.078077],[20.969467,51.131539],[20.941315,51.141448],[20.976334,51.166858]]]}},{"type":"Feature","properties":{"nazwa":"Sędziszów, Wodzisław"},"geometry":{"type":"Polygon","coordinates":[[[20.030136,50.638575],[19.924393,50.639881],[19.8983,50.615489],[19.864655,50.61941],[19.854012,50.612875],[19.844398,50.596532],[19.843712,50.590212],[19.824829,50.579967],[19.818306,50.571027],[19.802856,50.565576],[19.789467,50.56732],[19.791183,50.555325],[19.843712,50.556634],[19.859161,50.544199],[19.903793,50.541581],[19.912033,50.512117],[19.940872,50.503383],[19.971771,50.522595],[20.030823,50.51168],[20.034943,50.50382],[20.054169,50.5143],[20.086441,50.509497],[20.100174,50.495958],[20.100174,50.490716],[20.130386,50.490279],[20.164719,50.485037],[20.168839,50.492463],[20.199738,50.500326],[20.216904,50.49159],[20.224457,50.493774],[20.230637,50.47892],[20.245571,50.481651],[20.252609,50.480012],[20.251236,50.475533],[20.264454,50.468322],[20.275784,50.470945],[20.332947,50.467339],[20.363503,50.473239],[20.373802,50.490061],[20.332947,50.504475],[20.347366,50.529143],[20.33947,50.545508],[20.296555,50.563177],[20.284882,50.577786],[20.24334,50.588686],[20.210037,50.57844],[20.184631,50.605031],[20.125751,50.606992],[20.080948,50.61233],[20.05846,50.641732],[20.032883,50.637704],[20.030136,50.638575]]]}},{"type":"Feature","properties":{"nazwa":"Łagów, Nowa Słupia"},"geometry":{"type":"Polygon","coordinates":[[[21.318303,50.860933],[21.274623,50.848845],[21.233763,50.823168],[21.192101,50.829149],[21.13492,50.822826],[21.141706,50.846043],[21.134505,50.881648],[21.170722,50.889702],[21.157696,50.910285],[21.135873,50.918742],[21.048958,50.898386],[21.010538,50.917147],[21.000619,50.913918],[21.000942,50.909269],[20.980492,50.895958],[20.979801,50.874951],[21.025537,50.865609],[21.02333,50.838956],[21.007653,50.803805],[20.974799,50.755234],[21.000938,50.669993],[20.998814,50.635479],[21.046654,50.642696],[21.066266,50.631975],[21.138715,50.639631],[21.155604,50.64687],[21.158324,50.669304],[21.139279,50.672754],[21.138191,50.699668],[21.194676,50.70513],[21.267012,50.686537],[21.284569,50.694479],[21.299345,50.793613],[21.318303,50.860933]]]}},{"type":"Feature","properties":{"nazwa":"Włoszczowa"},"geometry":{"type":"Polygon","coordinates":[[[19.8771,51.047869],[19.875383,51.04679],[19.87519,51.045023],[19.876435,51.044929],[19.87637,51.043026],[19.873967,51.043148],[19.873259,51.040166],[19.874096,51.039788],[19.873431,51.037333],[19.871414,51.037198],[19.869332,51.038021],[19.868968,51.037333],[19.866865,51.036537],[19.867938,51.035241],[19.867144,51.032758],[19.864569,51.030248],[19.865427,51.027171],[19.868088,51.025768],[19.866607,51.01879],[19.863882,51.018884],[19.861565,51.013647],[19.864826,51.005978],[19.858217,50.99847],[19.855728,50.998362],[19.848003,50.994743],[19.83603,50.976534],[19.833884,50.976453],[19.831095,50.97067],[19.832339,50.969238],[19.828606,50.966319],[19.831202,50.965468],[19.82852,50.962954],[19.829936,50.962522],[19.830623,50.958967],[19.834356,50.958886],[19.834871,50.95767],[19.835343,50.952615],[19.834313,50.951155],[19.837575,50.948748],[19.840794,50.949289],[19.84663,50.945396],[19.847403,50.942638],[19.849463,50.932253],[19.842081,50.923272],[19.839077,50.922082],[19.837747,50.91962],[19.838433,50.917402],[19.830623,50.915183],[19.825258,50.914912],[19.818821,50.911503],[19.813757,50.909974],[19.813628,50.909365],[19.808071,50.906537],[19.806547,50.906565],[19.804766,50.907133],[19.802642,50.907241],[19.802084,50.907728],[19.799595,50.908202],[19.798908,50.907972],[19.796891,50.908188],[19.795432,50.906916],[19.793115,50.906064],[19.795132,50.905184],[19.79526,50.904616],[19.79408,50.904467],[19.79393,50.903885],[19.792492,50.903344],[19.791183,50.902126],[19.792922,50.901504],[19.793705,50.900611],[19.792804,50.900448],[19.793029,50.899061],[19.790325,50.899169],[19.790883,50.897051],[19.791012,50.893316],[19.787021,50.890419],[19.787621,50.887333],[19.782043,50.884301],[19.779811,50.885032],[19.777107,50.883651],[19.776506,50.882189],[19.777021,50.880808],[19.778223,50.879833],[19.77715,50.879752],[19.77612,50.878561],[19.758997,50.871601],[19.759812,50.871059],[19.747539,50.866509],[19.747496,50.86613],[19.753976,50.864017],[19.75831,50.86139],[19.763975,50.85944],[19.770842,50.859142],[19.777021,50.85543],[19.79187,50.851854],[19.797621,50.848277],[19.805431,50.847844],[19.81925,50.839552],[19.821482,50.836245],[19.825773,50.832776],[19.825773,50.825118],[19.829314,50.824508],[19.832597,50.819547],[19.819164,50.820523],[19.818821,50.819981],[19.817877,50.818951],[19.820709,50.807996],[19.823713,50.807779],[19.82337,50.805501],[19.815817,50.802789],[19.814959,50.801975],[19.809551,50.80344],[19.806633,50.80165],[19.805002,50.803657],[19.805689,50.805067],[19.804487,50.807725],[19.802427,50.807345],[19.797363,50.811087],[19.796591,50.816456],[19.792814,50.817324],[19.792557,50.818517],[19.788609,50.818625],[19.784489,50.817595],[19.779768,50.810925],[19.78406,50.810165],[19.787348,50.805904],[19.786828,50.806213],[19.786522,50.806226],[19.786715,50.806596],[19.786286,50.806986],[19.785921,50.807111],[19.785642,50.807087],[19.785411,50.806897],[19.785358,50.806626],[19.785486,50.806419],[19.785395,50.806169],[19.785529,50.806169],[19.785857,50.805986],[19.785438,50.805725],[19.785433,50.805467],[19.784875,50.805447],[19.78421,50.80565],[19.78406,50.80544],[19.784017,50.80485],[19.783384,50.804667],[19.782836,50.805033],[19.78245,50.805047],[19.781656,50.804552],[19.781849,50.803616],[19.781377,50.802999],[19.779639,50.802572],[19.779232,50.802151],[19.776109,50.799466],[19.775766,50.798598],[19.775487,50.79853],[19.775466,50.798408],[19.775991,50.798049],[19.777574,50.796035],[19.779865,50.795143],[19.781045,50.795038],[19.781914,50.794597],[19.785486,50.793356],[19.787246,50.7924],[19.787954,50.791918],[19.788952,50.791016],[19.789424,50.789483],[19.791226,50.787232],[19.792106,50.78654],[19.794102,50.784532],[19.795861,50.783799],[19.794145,50.782171],[19.79054,50.781276],[19.781957,50.780028],[19.769589,50.776753],[19.769643,50.776888],[19.770423,50.777328],[19.77023,50.778637],[19.770863,50.779214],[19.770262,50.779295],[19.770187,50.779125],[19.766722,50.77804],[19.766631,50.777077],[19.764699,50.777708],[19.762881,50.774763],[19.76552,50.772768],[19.767414,50.772911],[19.767827,50.774471],[19.769619,50.774295],[19.770316,50.770896],[19.767408,50.771269],[19.765831,50.771629],[19.741734,50.754649],[19.739943,50.755654],[19.742796,50.756998],[19.740179,50.757853],[19.73387,50.762386],[19.73748,50.765023],[19.734857,50.768663],[19.734938,50.768684],[19.734254,50.769722],[19.726617,50.770977],[19.72239,50.766716],[19.723978,50.766187],[19.721049,50.763119],[19.723558,50.762123],[19.722492,50.759451],[19.714991,50.761955],[19.705852,50.761806],[19.707659,50.759848],[19.707952,50.75883],[19.70962,50.757336],[19.709647,50.75593],[19.711388,50.7543],[19.70443,50.752409],[19.706946,50.748465],[19.708292,50.743818],[19.711179,50.74408],[19.712702,50.742763],[19.713147,50.741558],[19.716468,50.737396],[19.716892,50.73636],[19.718233,50.73497],[19.719493,50.733053],[19.719697,50.731922],[19.718115,50.73176],[19.717337,50.732327],[19.7165,50.732551],[19.715111,50.732398],[19.714724,50.732167],[19.713238,50.732306],[19.713185,50.731675],[19.712316,50.731614],[19.712412,50.730636],[19.71297,50.729189],[19.75511,50.715995],[19.756867,50.716053],[19.759008,50.715737],[19.759764,50.715734],[19.760832,50.715961],[19.763739,50.716043],[19.765568,50.717802],[19.766464,50.71802],[19.767403,50.71802],[19.768787,50.71823],[19.770496,50.7193],[19.771383,50.719657],[19.774017,50.720265],[19.776324,50.720465],[19.777751,50.720434],[19.778293,50.720757],[19.778749,50.721718],[19.779248,50.721806],[19.78024,50.721633],[19.781356,50.721776],[19.785422,50.720815],[19.786044,50.720849],[19.787686,50.721453],[19.793801,50.72074],[19.792964,50.718268],[19.80159,50.717208],[19.804273,50.725155],[19.807513,50.724788],[19.809659,50.725603],[19.810989,50.725671],[19.806247,50.71214],[19.810195,50.71161],[19.808393,50.706025],[19.812384,50.705699],[19.81204,50.704449],[19.815559,50.704259],[19.816718,50.707683],[19.819894,50.705944],[19.825258,50.705835],[19.833219,50.704381],[19.83736,50.705339],[19.841829,50.705721],[19.843336,50.705793],[19.844691,50.705013],[19.845268,50.704519],[19.845858,50.703508],[19.846673,50.702845],[19.847483,50.701807],[19.847365,50.700747],[19.847936,50.700698],[19.848872,50.700277],[19.847719,50.69643],[19.847805,50.695955],[19.848121,50.694974],[19.84906,50.693953],[19.849125,50.693275],[19.850085,50.69188],[19.850401,50.690667],[19.85075,50.690606],[19.852649,50.690905],[19.857112,50.690137],[19.857477,50.690144],[19.859065,50.690524],[19.859891,50.690844],[19.861028,50.690953],[19.868335,50.692264],[19.871714,50.693175],[19.873366,50.682986],[19.861758,50.679437],[19.85914,50.675249],[19.85884,50.671115],[19.86474,50.665839],[19.864612,50.665199],[19.866393,50.664995],[19.864783,50.664098],[19.854076,50.665737],[19.853454,50.664288],[19.844356,50.666573],[19.83706,50.670164],[19.833369,50.667308],[19.841609,50.662887],[19.838873,50.658671],[19.842103,50.65848],[19.840021,50.656304],[19.837661,50.65629],[19.83691,50.655746],[19.83736,50.655569],[19.835429,50.654576],[19.834206,50.654726],[19.832189,50.654453],[19.831696,50.654073],[19.83309,50.653433],[19.833627,50.652454],[19.833198,50.651542],[19.835043,50.651583],[19.841437,50.649828],[19.857702,50.64595],[19.858561,50.646222],[19.864054,50.645542],[19.864869,50.645814],[19.869933,50.645841],[19.873967,50.64742],[19.883623,50.646413],[19.882851,50.6438],[19.886284,50.6438],[19.885426,50.640208],[19.887743,50.638194],[19.889717,50.638901],[19.88946,50.637214],[19.909716,50.642603],[19.924221,50.640099],[20.032368,50.638874],[20.028698,50.661235],[20.074044,50.678414],[20.096725,50.712126],[20.14854,50.700685],[20.22995,50.717276],[20.24864,50.730561],[20.229886,50.749884],[20.204115,50.757215],[20.166821,50.780679],[20.14442,50.805901],[20.120291,50.814985],[20.120366,50.828371],[20.123971,50.830621],[20.086387,50.846232],[20.074811,50.858844],[20.082836,50.877261],[20.037603,50.893451],[20.033312,50.912802],[20.016747,50.920973],[19.996276,50.942448],[20.018098,50.96186],[19.957861,50.990344],[19.957464,50.990887],[19.956692,50.991647],[19.955694,50.992123],[19.956247,50.994183],[19.956172,50.994574],[19.956772,50.996073],[19.956633,50.997518],[19.957427,50.999341],[19.957041,51.000057],[19.957727,51.000428],[19.957974,51.001083],[19.958639,51.00217],[19.956236,51.005344],[19.948061,51.013093],[19.945486,51.011973],[19.944649,51.010407],[19.940357,51.008678],[19.934521,51.011379],[19.936709,51.024445],[19.922472,51.02456],[19.919586,51.024175],[19.920444,51.025309],[19.896927,51.027954],[19.886112,51.04733],[19.8771,51.047869]]]}},{"type":"Feature","properties":{"nazwa":"Radoszyce"},"geometry":{"type":"Polygon","coordinates":[[[20.34668,51.008786],[20.385647,51.038156],[20.428391,51.03686],[20.474052,51.056071],[20.473709,51.084655],[20.39732,51.11861],[20.348396,51.108803],[20.271149,51.126368],[20.256042,51.13477],[20.305481,51.156954],[20.232868,51.201075],[20.227547,51.20086],[20.22068,51.198386],[20.216217,51.198817],[20.216217,51.204517],[20.214157,51.208174],[20.209522,51.20398],[20.207634,51.201183],[20.209007,51.19957],[20.194416,51.19602],[20.192699,51.198171],[20.199566,51.200323],[20.199738,51.203764],[20.195961,51.205163],[20.194073,51.203764],[20.178967,51.206346],[20.180168,51.194944],[20.175791,51.195536],[20.158796,51.197526],[20.159054,51.193384],[20.150814,51.192255],[20.149355,51.193707],[20.145063,51.191233],[20.139914,51.19247],[20.137768,51.191394],[20.136395,51.19134],[20.134592,51.190479],[20.13279,51.191017],[20.125751,51.190856],[20.118885,51.188973],[20.114164,51.191286],[20.11219,51.191502],[20.109444,51.193115],[20.100002,51.19091],[20.092793,51.191448],[20.090818,51.192201],[20.085926,51.192846],[20.082664,51.193599],[20.079317,51.192308],[20.073652,51.193815],[20.069275,51.193922],[20.064554,51.196396],[20.063009,51.193599],[20.057087,51.19021],[20.05434,51.190802],[20.05537,51.195105],[20.057859,51.195213],[20.058632,51.196504],[20.059576,51.196719],[20.059662,51.198978],[20.053396,51.202366],[20.03314,51.200699],[20.032797,51.199139],[20.026016,51.2],[20.025415,51.198117],[20.011511,51.195321],[20.010653,51.190426],[19.999666,51.187736],[19.995546,51.183916],[20.02696,51.164921],[20.023441,51.159269],[20.023355,51.155662],[20.017691,51.151571],[20.012541,51.154774],[19.988809,51.139536],[19.990654,51.137732],[19.992199,51.138459],[19.99589,51.135847],[19.999795,51.134582],[20.002327,51.132912],[20.000868,51.1324],[19.997435,51.133154],[19.994216,51.133747],[19.991941,51.134016],[19.989581,51.134366],[19.98765,51.134447],[19.986877,51.134932],[19.986148,51.134555],[19.986663,51.132939],[19.98795,51.132804],[19.989066,51.129842],[19.988165,51.129599],[19.994774,51.101366],[19.989281,51.088429],[19.987907,51.077214],[19.985847,51.073978],[20.045586,51.06988],[20.047646,51.063407],[20.053825,51.064054],[20.058289,51.056718],[20.049706,51.052833],[20.052452,51.027792],[20.053482,51.017426],[20.130386,51.02844],[20.214844,51.009867],[20.295525,51.026713],[20.34668,51.008786]]]}},{"type":"Feature","properties":{"nazwa":"Ostrowiec Świętokrzyski"},"geometry":{"type":"Polygon","coordinates":[[[21.137695,50.82459],[21.192627,50.831096],[21.231766,50.825024],[21.271076,50.850282],[21.319141,50.866428],[21.360168,50.871845],[21.368408,50.884193],[21.40583,50.887225],[21.453896,50.876394],[21.453896,50.848657],[21.508141,50.830445],[21.566162,50.869245],[21.576118,50.898486],[21.609421,50.927925],[21.606674,50.94134],[21.588821,50.954967],[21.610451,50.977885],[21.635857,50.980479],[21.684265,51.020234],[21.661949,51.024553],[21.63105,51.062976],[21.558952,51.054344],[21.529427,51.05866],[21.487885,51.035565],[21.464539,51.012459],[21.380424,51.040099],[21.326866,51.037508],[21.291847,51.009435],[21.284981,50.989557],[21.248932,50.990853],[21.220093,51.002738],[21.198807,50.988044],[21.20018,50.962103],[21.201553,50.946748],[21.163788,50.935498],[21.161041,50.911692],[21.173401,50.888741],[21.140442,50.881377],[21.144562,50.846272],[21.137695,50.82459]]]}},{"type":"Feature","properties":{"nazwa":"Kazimierza Wielka"},"geometry":{"type":"Polygon","coordinates":[[[20.511156,50.309212],[20.464616,50.30864],[20.43453,50.271702],[20.339252,50.267731],[20.340705,50.264057],[20.345852,50.262707],[20.35322,50.263953],[20.366096,50.254287],[20.399763,50.241199],[20.392431,50.235726],[20.375792,50.228275],[20.378565,50.215855],[20.38328,50.210176],[20.409894,50.212842],[20.416326,50.193971],[20.463527,50.200493],[20.498075,50.193377],[20.52378,50.187735],[20.537,50.197138],[20.560877,50.20215],[20.583788,50.273233],[20.511156,50.309212]]]}},{"type":"Feature","properties":{"nazwa":"Blicza"},"geometry":{"type":"Polygon","coordinates":[[[20.652684,50.813597],[20.641242,50.809147],[20.590814,50.781038],[20.711574,50.739046],[20.716205,50.754796],[20.695944,50.772005],[20.657739,50.814817],[20.652684,50.813597]]]}},{"type":"Feature","properties":{"nazwa":"Morawica"},"geometry":{"type":"Polygon","coordinates":[[[20.515349,50.766615],[20.555982,50.754218],[20.563439,50.721887],[20.520402,50.708502],[20.556975,50.692543],[20.584757,50.669681],[20.605376,50.669972],[20.693246,50.655679],[20.68473,50.679903],[20.701314,50.71159],[20.711079,50.738643],[20.696027,50.743133],[20.675767,50.748261],[20.661874,50.754487],[20.638473,50.765372],[20.608618,50.77316],[20.592621,50.778994],[20.534021,50.784959],[20.515349,50.766615]]]}},{"type":"Feature","properties":{"nazwa":"Małogoszcz, Chęciny"},"geometry":{"type":"Polygon","coordinates":[[[20.351486,50.826758],[20.306511,50.841503],[20.295181,50.853642],[20.249863,50.863611],[20.218277,50.830662],[20.142059,50.842587],[20.120773,50.828277],[20.12043,50.815046],[20.144463,50.805935],[20.167122,50.78076],[20.204201,50.75731],[20.22995,50.749925],[20.248833,50.730588],[20.233383,50.719395],[20.293636,50.722547],[20.295868,50.736021],[20.330029,50.752966],[20.353889,50.78673],[20.384617,50.782388],[20.422211,50.747318],[20.463066,50.742756],[20.475426,50.731131],[20.516624,50.721351],[20.518856,50.709395],[20.56057,50.722221],[20.55439,50.753183],[20.510101,50.765779],[20.531387,50.787055],[20.534477,50.787272],[20.588722,50.78228],[20.611382,50.796604],[20.587006,50.815914],[20.55336,50.812009],[20.532761,50.838034],[20.509758,50.854509],[20.475426,50.850608],[20.452423,50.855809],[20.4356,50.83218],[20.356636,50.847139],[20.351486,50.826758]]]}},{"type":"Feature","properties":{"nazwa":"Kielce Północ"},"geometry":{"type":"Polygon","coordinates":[[[20.626666,50.855199],[20.624489,50.841184],[20.623257,50.83434],[20.622737,50.827991],[20.621495,50.800281],[20.638215,50.810103],[20.654636,50.816289],[20.658426,50.821875],[20.684625,50.851833],[20.715166,50.850902],[20.707475,50.866533],[20.677406,50.865608],[20.663738,50.89841],[20.657873,50.89553],[20.654103,50.893884],[20.650574,50.892085],[20.648641,50.891201],[20.643652,50.888679],[20.639146,50.883813],[20.634035,50.877976],[20.633094,50.874899],[20.632227,50.871891],[20.631621,50.869758],[20.631418,50.867792],[20.631078,50.866595],[20.626666,50.855199]]]}},{"type":"Feature","properties":{"nazwa":"Daleszyce, Pierzchnica"},"geometry":{"type":"Polygon","coordinates":[[[20.685213,50.850975],[20.65722,50.81868],[20.697513,50.772628],[20.720349,50.755717],[20.686019,50.679898],[20.694382,50.655635],[20.82919,50.635705],[20.873165,50.635464],[20.876531,50.662436],[20.90641,50.655014],[20.944028,50.658517],[20.955544,50.673355],[20.995996,50.668572],[20.999764,50.669766],[20.973604,50.754803],[20.985984,50.773636],[20.943228,50.779509],[20.895773,50.822738],[20.777814,50.847214],[20.685213,50.850975]]]}},{"type":"Feature","properties":{"nazwa":"Starachowice"},"geometry":{"type":"Polygon","coordinates":[[[21.10405,51.078077],[21.107483,51.060818],[21.094437,51.059523],[21.08963,51.065133],[21.055298,51.073331],[21.034698,51.029304],[21.038132,51.023689],[21.071777,51.02153],[21.08139,51.009003],[21.058731,50.999929],[21.001053,51.018506],[20.975647,50.992582],[21.020966,50.970535],[21.000366,50.915156],[21.009979,50.919052],[21.048431,50.900868],[21.136322,50.920783],[21.154861,50.912558],[21.158295,50.938094],[21.194687,50.949343],[21.194,50.986963],[21.215973,51.004682],[21.228333,51.00425],[21.247559,50.995175],[21.282578,50.990421],[21.286011,51.008138],[21.319656,51.038372],[21.378708,51.042689],[21.382141,51.056934],[21.371841,51.056502],[21.369095,51.064702],[21.352959,51.066212],[21.352959,51.084547],[21.153145,51.079371],[21.149368,51.087566],[21.10405,51.078077]]]}},{"type":"Feature","properties":{"nazwa":"Miedziana Góra"},"geometry":{"type":"Polygon","coordinates":[[[20.614764,50.9211],[20.600301,50.929803],[20.610238,50.947945],[20.583215,50.96349],[20.563518,50.980446],[20.574383,51.012975],[20.53488,51.018827],[20.493024,50.991715],[20.50547,50.959301],[20.517384,50.918461],[20.521382,50.89463],[20.539854,50.88343],[20.538712,50.885603],[20.54687,50.903111],[20.599873,50.914147],[20.614764,50.9211]]]}},{"type":"Feature","properties":{"nazwa":"Mniów, Strawczyn"},"geometry":{"type":"Polygon","coordinates":[[[20.47573,51.084537],[20.47529,51.0557],[20.429099,51.036242],[20.386313,51.037531],[20.348168,51.008608],[20.368599,50.961762],[20.356662,50.938567],[20.322547,50.929347],[20.345922,50.913417],[20.345254,50.898401],[20.361186,50.917365],[20.426723,50.903811],[20.460628,50.917703],[20.515354,50.918759],[20.489678,50.991223],[20.535386,51.020327],[20.573804,51.015056],[20.580048,51.034041],[20.577866,51.049863],[20.607973,51.05791],[20.607416,51.075444],[20.47573,51.084537]]]}},{"type":"Feature","properties":{"nazwa":"Bodzentyn"},"geometry":{"type":"Polygon","coordinates":[[[20.833036,50.934586],[20.821493,50.907702],[20.870844,50.907056],[20.884385,50.880694],[20.913611,50.88629],[20.977169,50.875434],[20.978859,50.896352],[20.996081,50.908095],[21.000408,50.939501],[21.016142,50.969188],[20.970131,50.992135],[20.996474,51.018474],[20.960373,51.013039],[20.913205,51.031814],[20.879433,51.022376],[20.856772,50.999401],[20.838825,50.996119],[20.828332,50.962859],[20.854923,50.956702],[20.833036,50.934586]]]}},{"type":"Feature","properties":{"nazwa":"Bieliny"},"geometry":{"coordinates":[[[20.708834,50.866522],[20.716993,50.85101],[20.778256,50.847885],[20.896331,50.823412],[20.944557,50.780498],[20.986162,50.774194],[21.006778,50.804508],[21.022072,50.838662],[21.024018,50.864678],[20.914171,50.885525],[20.883699,50.879328],[20.869773,50.906164],[20.820836,50.906661],[20.708834,50.866522]]],"type":"Polygon"}},{"type":"Feature","properties":{"nazwa":"Chmielnik"},"geometry":{"type":"Polygon","coordinates":[[[20.827074,50.635578],[20.648818,50.661209],[20.644361,50.64096],[20.663806,50.614039],[20.660165,50.590694],[20.632225,50.587342],[20.627709,50.570883],[20.642434,50.558375],[20.68447,50.549167],[20.705828,50.563768],[20.74975,50.563493],[20.750914,50.542938],[20.775148,50.536769],[20.788478,50.560128],[20.810704,50.568616],[20.811108,50.613723],[20.827074,50.635578]]]}},{"type":"Feature","properties":{"nazwa":"Opatów"},"geometry":{"coordinates":[[[21.453479,50.84837],[21.42208,50.84903],[21.406412,50.83108],[21.353589,50.832366],[21.30495,50.812353],[21.294272,50.757385],[21.325251,50.739218],[21.375673,50.740848],[21.450206,50.75662],[21.497034,50.759513],[21.522364,50.790003],[21.50756,50.83004],[21.453479,50.84837]]],"type":"Polygon"}},{"type":"Feature","properties":{"nazwa":"Ożarów"},"geometry":{"type":"Polygon","coordinates":[[[21.595269,50.951096],[21.608373,50.941654],[21.611192,50.928072],[21.577532,50.898582],[21.570015,50.875579],[21.629428,50.870855],[21.623813,50.855504],[21.66731,50.844876],[21.663571,50.830104],[21.624755,50.819184],[21.624296,50.79528],[21.688331,50.77282],[21.717792,50.77901],[21.733208,50.792025],[21.721076,50.827163],[21.800791,50.860811],[21.845374,50.859921],[21.824784,50.925237],[21.818707,50.937054],[21.803071,50.935798],[21.732788,50.9437],[21.7122,50.935733],[21.687417,50.946343],[21.61118,50.96199],[21.595269,50.951096]]]}}]}